,City,State,Zipcode,Latitude,Longitude
25,Adirondacks Region,NY,12032,43.2295,-74.5171
26,Adirondacks Region,NY,12108,43.4531,-74.4567
27,Adirondacks Region,NY,12134,43.2027,-74.1115
28,Adirondacks Region,NY,12139,43.4032,-74.5363
29,Adirondacks Region,NY,12164,43.4904,-74.3743
30,Adirondacks Region,NY,12190,43.3998,-74.2878
31,Adirondacks Region,NY,12801,43.3137,-73.6463
32,Adirondacks Region,NY,12810,43.4689,-73.8986
33,Adirondacks Region,NY,12812,43.8536,-74.4354
34,Adirondacks Region,NY,12814,43.5598,-73.6583
35,Adirondacks Region,NY,12815,43.673,-73.7578
36,Adirondacks Region,NY,12824,43.4922,-73.6804
37,Adirondacks Region,NY,12817,43.593,-73.7926
38,Adirondacks Region,NY,12836,43.7349,-73.5025
39,Adirondacks Region,NY,12901,44.6979,-73.4552
40,Adirondacks Region,NY,12903,44.6873,-73.4458
41,Adirondacks Region,NY,12910,44.8882,-73.6528
42,Adirondacks Region,NY,12911,44.5222,-73.465
43,Adirondacks Region,NY,12912,44.5317,-73.967
44,Adirondacks Region,NY,12913,44.407,-74.0911
45,Adirondacks Region,NY,12914,44.943,-74.6531
46,Adirondacks Region,NY,12916,44.8303,-74.5151
47,Adirondacks Region,NY,12917,44.9045,-74.1672
48,Adirondacks Region,NY,12918,44.6975,-73.6271
49,Adirondacks Region,NY,12919,44.9844,-73.4492
50,Adirondacks Region,NY,12920,44.9252,-74.0762
51,Adirondacks Region,NY,12921,44.8875,-73.4376
52,Adirondacks Region,NY,12922,44.2878,-74.6761
53,Adirondacks Region,NY,12923,44.9621,-73.9462
54,Adirondacks Region,NY,12924,44.4703,-73.5922
55,Adirondacks Region,NY,12926,44.9233,-74.2937
56,Adirondacks Region,NY,12928,43.9584,-73.4304
57,Adirondacks Region,NY,12930,44.7176,-74.5542
58,Adirondacks Region,NY,12932,44.2192,-73.5868
59,Adirondacks Region,NY,12934,44.8647,-73.8928
60,Adirondacks Region,NY,12935,44.9064,-73.7963
61,Adirondacks Region,NY,12936,44.2897,-73.3506
62,Adirondacks Region,NY,12937,44.9908,-74.4979
63,Adirondacks Region,NY,12941,44.4303,-73.7396
64,Adirondacks Region,NY,12942,44.2547,-73.7907
65,Adirondacks Region,NY,12943,44.184,-73.7856
66,Adirondacks Region,NY,12944,44.5018,-73.477
67,Adirondacks Region,NY,12945,44.3502,-74.2736
68,Adirondacks Region,NY,12946,44.2839,-73.9845
69,Adirondacks Region,NY,12949,44.7713,-74.655
70,Adirondacks Region,NY,12950,44.2842,-73.5636
71,Adirondacks Region,NY,12952,44.734,-73.955
72,Adirondacks Region,NY,12953,44.8514,-74.2931
73,Adirondacks Region,NY,12955,44.7698,-73.9585
74,Adirondacks Region,NY,12956,44.0889,-73.5204
75,Adirondacks Region,NY,12957,44.8183,-74.5563
76,Adirondacks Region,NY,12958,44.9619,-73.5823
77,Adirondacks Region,NY,12959,44.9568,-73.6407
78,Adirondacks Region,NY,12960,44.0527,-73.5077
79,Adirondacks Region,NY,12961,44.0493,-73.5547
80,Adirondacks Region,NY,12962,44.6924,-73.5585
81,Adirondacks Region,NY,12964,44.1572,-73.6137
82,Adirondacks Region,NY,12965,44.7058,-74.715
83,Adirondacks Region,NY,12966,44.8406,-74.4005
84,Adirondacks Region,NY,12967,44.7754,-74.6082
85,Adirondacks Region,NY,12969,44.6921,-74.1134
86,Adirondacks Region,NY,12970,44.5142,-74.3049
87,Adirondacks Region,NY,12972,44.5798,-73.5266
88,Adirondacks Region,NY,12973,44.2317,-74.5657
89,Adirondacks Region,NY,12974,44.0458,-73.4624
90,Adirondacks Region,NY,12978,44.6094,-73.8017
91,Adirondacks Region,NY,12979,44.9894,-73.3664
92,Adirondacks Region,NY,12980,44.67,-74.661
93,Adirondacks Region,NY,12981,44.6568,-73.7369
94,Adirondacks Region,NY,12983,44.3291,-74.1222
95,Adirondacks Region,NY,12985,44.6171,-73.6072
96,Adirondacks Region,NY,12986,44.1363,-74.5527
97,Adirondacks Region,NY,12987,44.3363,-73.7755
98,Adirondacks Region,NY,12989,44.4537,-74.0647
99,Adirondacks Region,NY,12992,44.8209,-73.5069
100,Adirondacks Region,NY,12993,44.1872,-73.4377
101,Adirondacks Region,NY,12996,44.4094,-73.3773
102,Adirondacks Region,NY,12997,44.3894,-73.8225
103,Adirondacks Region,NY,12804,43.3756,-73.6039
104,Adirondacks Region,NY,12808,43.7398,-73.7844
105,Adirondacks Region,NY,12842,43.7785,-74.2587
106,Adirondacks Region,NY,12843,43.5314,-74.0171
107,Adirondacks Region,NY,12845,43.4259,-73.7169
108,Adirondacks Region,NY,12846,43.3183,-73.8353
109,Adirondacks Region,NY,12847,43.938,-74.4605
110,Adirondacks Region,NY,12851,43.7845,-73.9789
111,Adirondacks Region,NY,12852,43.9558,-74.1106
112,Adirondacks Region,NY,12853,43.6931,-73.9871
113,Adirondacks Region,NY,12855,44.0068,-73.6995
114,Adirondacks Region,NY,12857,43.7749,-73.9344
115,Adirondacks Region,NY,12858,43.8858,-73.665
116,Adirondacks Region,NY,12860,43.7364,-73.8353
117,Adirondacks Region,NY,12870,43.8421,-73.7601
118,Adirondacks Region,NY,12872,43.8815,-73.7211
119,Adirondacks Region,NY,12874,43.673,-73.5101
120,Adirondacks Region,NY,12878,43.4246,-73.9278
121,Adirondacks Region,NY,12883,43.8466,-73.4257
122,Adirondacks Region,NY,12885,43.4925,-73.7749
123,Adirondacks Region,NY,12886,43.6356,-73.9335
124,Adirondacks Region,NY,13331,43.7726,-74.8205
125,Adirondacks Region,NY,13324,43.3182,-75.0855
126,Adirondacks Region,NY,13360,43.7512,-74.7967
127,Adirondacks Region,NY,13353,43.3819,-74.6682
128,Adirondacks Region,NY,13420,43.7417,-74.8915
129,Adirondacks Region,NY,13436,43.8041,-74.6223
130,Adirondacks Region,NY,13613,44.8046,-74.7725
131,Adirondacks Region,NY,13614,44.5318,-75.6657
132,Adirondacks Region,NY,13617,44.5986,-75.1706
133,Adirondacks Region,NY,13621,44.8378,-75.0901
134,Adirondacks Region,NY,13625,44.5525,-74.9386
135,Adirondacks Region,NY,13630,44.507,-75.2721
136,Adirondacks Region,NY,13633,44.4852,-75.4864
137,Adirondacks Region,NY,13694,44.8499,-75.1638
138,Adirondacks Region,NY,13695,44.1369,-74.9194
139,Adirondacks Region,NY,13696,44.7131,-74.8995
140,Adirondacks Region,NY,13697,44.7952,-74.7878
141,Adirondacks Region,NY,13635,44.3258,-75.2517
142,Adirondacks Region,NY,13642,44.3348,-75.4694
143,Adirondacks Region,NY,13646,44.4339,-75.6267
144,Adirondacks Region,NY,13648,44.1654,-75.3284
145,Adirondacks Region,NY,13652,44.4671,-75.2321
146,Adirondacks Region,NY,13654,44.619,-75.4055
147,Adirondacks Region,NY,13655,44.9744,-74.6635
148,Adirondacks Region,NY,13639,44.2455,-75.1315
149,Adirondacks Region,NY,13658,44.6834,-75.2637
150,Adirondacks Region,NY,13666,44.2091,-74.9898
151,Adirondacks Region,NY,13667,44.8023,-74.9911
152,Adirondacks Region,NY,13668,44.7487,-74.9976
153,Adirondacks Region,NY,13669,44.6964,-75.488
154,Adirondacks Region,NY,13670,44.1918,-75.0695
155,Adirondacks Region,NY,13672,44.6242,-74.8148
156,Adirondacks Region,NY,13660,44.7468,-75.1291
157,Adirondacks Region,NY,13662,44.9345,-74.8903
158,Adirondacks Region,NY,13676,44.6728,-74.9832
159,Adirondacks Region,NY,13680,44.5941,-75.3191
160,Adirondacks Region,NY,13681,44.4181,-75.3935
161,Adirondacks Region,NY,13687,44.5093,-74.8884
162,Adirondacks Region,NY,13690,44.1554,-75.0338
163,Adirondacks Region,NY,13684,44.4295,-75.1502
1796,Central New York Region,NY,14414,42.9085,-77.7476
1797,Central New York Region,NY,14415,42.7582,-77.0152
1798,Central New York Region,NY,14423,42.9717,-77.8504
1799,Central New York Region,NY,14424,42.8856,-77.278
1800,Central New York Region,NY,14425,42.9716,-77.3634
1801,Central New York Region,NY,14418,42.5669,-77.1539
1802,Central New York Region,NY,14435,42.7231,-77.6712
1803,Central New York Region,NY,14437,42.522,-77.669
1804,Central New York Region,NY,14441,42.6869,-76.9573
1805,Central New York Region,NY,14454,42.7987,-77.8191
1806,Central New York Region,NY,14456,42.8786,-76.9594
1807,Central New York Region,NY,14462,42.6626,-77.766
1808,Central New York Region,NY,14432,42.9616,-77.1364
1809,Central New York Region,NY,14466,42.7943,-77.6063
1810,Central New York Region,NY,14469,42.8981,-77.4319
1811,Central New York Region,NY,14471,42.7866,-77.5002
1812,Central New York Region,NY,14475,42.9346,-77.4936
1813,Central New York Region,NY,14478,42.5607,-77.1427
1814,Central New York Region,NY,14480,42.8357,-77.7033
1815,Central New York Region,NY,14481,42.7697,-77.8957
1816,Central New York Region,NY,14485,42.9077,-77.6141
1817,Central New York Region,NY,14486,42.9045,-77.9013
1818,Central New York Region,NY,14487,42.822,-77.6681
1819,Central New York Region,NY,14507,42.6983,-77.2548
1820,Central New York Region,NY,14510,42.7228,-77.8743
1821,Central New York Region,NY,14512,42.5609,-77.3939
1822,Central New York Region,NY,14504,42.9734,-77.2269
1823,Central New York Region,NY,14517,42.5796,-77.94
1824,Central New York Region,NY,14521,42.6763,-76.8215
1825,Central New York Region,NY,14527,42.6629,-77.0527
1826,Central New York Region,NY,14532,42.9586,-77.0615
1827,Central New York Region,NY,14533,42.8267,-77.8969
1828,Central New York Region,NY,14541,42.7451,-76.8335
1829,Central New York Region,NY,14544,42.7576,-77.2266
1830,Central New York Region,NY,14545,42.666,-77.7146
1831,Central New York Region,NY,14548,42.9554,-77.2268
1832,Central New York Region,NY,14823,42.2688,-77.6053
1833,Central New York Region,NY,14824,42.2932,-76.7145
1834,Central New York Region,NY,14825,42.0097,-76.6184
1835,Central New York Region,NY,14826,42.4972,-77.501
1836,Central New York Region,NY,14830,42.1556,-77.064
1837,Central New York Region,NY,14836,42.4896,-77.9368
1838,Central New York Region,NY,14837,42.5246,-76.9764
1839,Central New York Region,NY,14838,42.2395,-76.6817
1840,Central New York Region,NY,14839,42.1384,-77.6516
1841,Central New York Region,NY,14840,42.4242,-77.1045
1842,Central New York Region,NY,14841,42.5549,-76.8472
1843,Central New York Region,NY,14842,42.5997,-76.9232
1844,Central New York Region,NY,14843,42.3261,-77.6601
1845,Central New York Region,NY,14845,42.2998,-76.799
1846,Central New York Region,NY,14846,42.5184,-78.0001
1847,Central New York Region,NY,14847,42.6196,-76.7232
1848,Central New York Region,NY,14850,42.4417,-76.4921
1849,Central New York Region,NY,14853,42.4503,-76.4827
1850,Central New York Region,NY,14855,42.124,-77.5023
1851,Central New York Region,NY,14858,42.0282,-77.1356
1852,Central New York Region,NY,14859,42.0839,-76.5699
1853,Central New York Region,NY,14860,42.613,-76.8251
1854,Central New York Region,NY,14861,42.0551,-76.7032
1855,Central New York Region,NY,14864,42.2991,-76.8275
1856,Central New York Region,NY,14865,42.3457,-76.8461
1857,Central New York Region,NY,14867,42.27,-76.6141
1858,Central New York Region,NY,14869,42.3356,-76.7894
1859,Central New York Region,NY,14870,42.2784,-77.0847
1860,Central New York Region,NY,14871,42.0536,-76.8271
1861,Central New York Region,NY,14872,42.2258,-76.8468
1862,Central New York Region,NY,14873,42.5236,-77.2876
1863,Central New York Region,NY,14874,42.5344,-77.1532
1864,Central New York Region,NY,14877,42.0822,-77.6618
1865,Central New York Region,NY,14878,42.4371,-76.9369
1866,Central New York Region,NY,14879,42.2847,-77.2161
1867,Central New York Region,NY,14560,42.6348,-77.5989
1868,Central New York Region,NY,14561,42.7989,-77.1321
1869,Central New York Region,NY,14564,42.981,-77.4109
1870,Central New York Region,NY,14572,42.5673,-77.5927
1871,Central New York Region,NY,14801,42.1036,-77.2371
1872,Central New York Region,NY,14806,42.1942,-77.7362
1873,Central New York Region,NY,14807,42.4298,-77.7278
1874,Central New York Region,NY,14808,42.5542,-77.4722
1875,Central New York Region,NY,14809,42.4092,-77.417
1876,Central New York Region,NY,14810,42.3367,-77.3157
1877,Central New York Region,NY,14812,42.2601,-76.9581
1878,Central New York Region,NY,14814,42.1413,-76.9368
1879,Central New York Region,NY,14815,42.3703,-77.1082
1880,Central New York Region,NY,14816,42.172,-76.7331
1881,Central New York Region,NY,14817,42.4065,-76.2926
1882,Central New York Region,NY,14818,42.4178,-76.8516
1883,Central New York Region,NY,14819,42.1884,-77.3913
1884,Central New York Region,NY,14820,42.2146,-77.3719
1885,Central New York Region,NY,14821,42.2327,-77.192
1886,Central New York Region,NY,14885,42.0397,-77.5459
1887,Central New York Region,NY,14886,42.5439,-76.6665
1888,Central New York Region,NY,14889,42.1986,-76.5542
1889,Central New York Region,NY,14891,42.3788,-76.8723
1890,Central New York Region,NY,14892,42.0171,-76.5771
1891,Central New York Region,NY,14894,42.0098,-76.729
1892,Central New York Region,NY,14898,42.0797,-77.4113
1893,Central New York Region,NY,14901,42.0929,-76.8089
1894,Central New York Region,NY,14903,42.1275,-76.8206
1895,Central New York Region,NY,14904,42.0778,-76.8083
1896,Central New York Region,NY,14905,42.0862,-76.8234
1897,Central New York Region,NY,14881,42.3949,-76.3498
1898,Central New York Region,NY,14882,42.5422,-76.5382
1899,Central New York Region,NY,14883,42.2146,-76.4961
1900,Central New York Region,NY,13730,42.228,-75.5265
1901,Central New York Region,NY,13731,42.1122,-74.8373
1902,Central New York Region,NY,13732,42.0555,-76.1213
1903,Central New York Region,NY,13733,42.2958,-75.4814
1904,Central New York Region,NY,13734,42.0451,-76.4459
1905,Central New York Region,NY,13736,42.3538,-76.2847
1906,Central New York Region,NY,13739,42.3333,-74.8068
1907,Central New York Region,NY,13740,42.2618,-74.7865
1908,Central New York Region,NY,13743,42.23,-76.3393
1909,Central New York Region,NY,13744,42.226,-75.9147
1910,Central New York Region,NY,13746,42.2607,-75.7655
1911,Central New York Region,NY,13748,42.0737,-75.8176
1912,Central New York Region,NY,13750,42.513,-74.8598
1913,Central New York Region,NY,13751,42.4563,-74.8899
1914,Central New York Region,NY,13752,42.2069,-74.9682
1915,Central New York Region,NY,13753,42.2753,-74.9172
1916,Central New York Region,NY,13754,42.064,-75.4271
1917,Central New York Region,NY,13755,42.0471,-75.0208
1918,Central New York Region,NY,13756,41.9891,-75.1316
1919,Central New York Region,NY,13757,42.424,-74.89
1920,Central New York Region,NY,13760,42.0746,-76.124
1921,Central New York Region,NY,13775,42.3391,-75.1668
1922,Central New York Region,NY,13776,42.4965,-75.3029
1923,Central New York Region,NY,13777,42.2388,-76.0087
1924,Central New York Region,NY,13778,42.3837,-75.8689
1925,Central New York Region,NY,13780,42.4023,-75.4917
1926,Central New York Region,NY,13782,42.24,-75.0299
1927,Central New York Region,NY,13783,41.9546,-75.2843
1928,Central New York Region,NY,13786,42.4419,-74.6865
1929,Central New York Region,NY,13787,42.2714,-75.7277
1930,Central New York Region,NY,13788,42.3682,-74.6814
1931,Central New York Region,NY,13790,42.1129,-75.958
1932,Central New York Region,NY,13795,42.0943,-75.8166
1933,Central New York Region,NY,13796,42.5358,-75.0909
1934,Central New York Region,NY,13797,42.3443,-75.9844
1935,Central New York Region,NY,13801,42.4979,-75.7623
1936,Central New York Region,NY,13802,42.2006,-76.0568
1937,Central New York Region,NY,13803,42.4424,-76.0383
1938,Central New York Region,NY,13804,42.2001,-75.3748
1939,Central New York Region,NY,13806,42.368,-74.9585
1940,Central New York Region,NY,13807,42.5905,-74.9457
1941,Central New York Region,NY,13808,42.5489,-75.2449
1942,Central New York Region,NY,13809,42.3738,-75.3948
1943,Central New York Region,NY,13810,42.5759,-75.0569
1944,Central New York Region,NY,13811,42.2245,-76.1843
1945,Central New York Region,NY,13812,42.0187,-76.3655
1946,Central New York Region,NY,13813,42.1675,-75.5581
1947,Central New York Region,NY,13815,42.5298,-75.5225
1948,Central New York Region,NY,13820,42.4385,-74.934
1949,Central New York Region,NY,13825,42.3984,-75.1757
1950,Central New York Region,NY,13826,42.1016,-75.634
1951,Central New York Region,NY,13827,42.1058,-76.2659
1952,Central New York Region,NY,13830,42.4417,-75.6001
1953,Central New York Region,NY,13832,42.6591,-75.6786
1954,Central New York Region,NY,13833,42.1656,-75.8298
1955,Central New York Region,NY,13834,42.5293,-74.9677
1956,Central New York Region,NY,13835,42.3789,-76.0721
1957,Central New York Region,NY,13838,42.318,-75.3964
1958,Central New York Region,NY,13839,42.2876,-75.2541
1959,Central New York Region,NY,13841,42.3991,-75.8472
1960,Central New York Region,NY,13842,42.3763,-74.7381
1961,Central New York Region,NY,13843,42.5178,-75.4035
1962,Central New York Region,NY,13844,42.5889,-75.5677
1963,Central New York Region,NY,13846,42.3451,-75.0472
1964,Central New York Region,NY,13849,42.3442,-75.2714
1965,Central New York Region,NY,13850,42.0916,-76.0025
1966,Central New York Region,NY,13856,42.1714,-75.1302
1967,Central New York Region,NY,13859,42.3695,-75.2484
1968,Central New York Region,NY,13861,42.4707,-75.111
1969,Central New York Region,NY,13862,42.3277,-75.9674
1970,Central New York Region,NY,13863,42.4691,-75.9153
1971,Central New York Region,NY,13864,42.3335,-76.4499
1972,Central New York Region,NY,13865,42.0764,-75.6431
1973,Central New York Region,NY,13901,42.1011,-75.9084
1974,Central New York Region,NY,13903,42.0855,-75.9099
1975,Central New York Region,NY,13904,42.1097,-75.8868
1976,Central New York Region,NY,13905,42.1,-75.924
1977,Central New York Region,NY,13454,43.146,-74.7809
1978,Central New York Region,NY,13456,43.0061,-75.2525
1979,Central New York Region,NY,13460,42.743,-75.4213
1980,Central New York Region,NY,13461,43.0704,-75.6019
1981,Central New York Region,NY,13464,42.6869,-75.5772
1982,Central New York Region,NY,13468,42.8421,-74.8578
1983,Central New York Region,NY,13471,43.2982,-75.6159
1984,Central New York Region,NY,13476,43.0805,-75.5402
1985,Central New York Region,NY,13477,43.0261,-75.5028
1986,Central New York Region,NY,13478,43.1337,-75.5831
1987,Central New York Region,NY,13480,42.8571,-75.3182
1988,Central New York Region,NY,13482,42.6834,-75.1817
1989,Central New York Region,NY,13483,43.3922,-75.8117
1990,Central New York Region,NY,13485,42.795,-75.2449
1991,Central New York Region,NY,13486,43.3052,-75.3815
1992,Central New York Region,NY,13488,42.6776,-74.768
1993,Central New York Region,NY,13490,43.1199,-75.3972
1994,Central New York Region,NY,13491,42.8421,-75.2407
1995,Central New York Region,NY,13492,43.1231,-75.2969
1996,Central New York Region,NY,13494,43.5356,-75.1456
1997,Central New York Region,NY,13495,43.1121,-75.2762
1998,Central New York Region,NY,13501,43.0981,-75.2264
1999,Central New York Region,NY,13502,43.1016,-75.242
2000,Central New York Region,NY,13431,43.2306,-75.0765
2001,Central New York Region,NY,13438,43.3422,-75.0953
2002,Central New York Region,NY,13439,42.8539,-74.9216
2003,Central New York Region,NY,13440,43.2166,-75.456
2004,Central New York Region,NY,13450,42.708,-74.7894
2005,Central New York Region,NY,13421,43.0936,-75.6527
2006,Central New York Region,NY,13424,43.1577,-75.3355
2007,Central New York Region,NY,13425,42.9271,-75.4721
2008,Central New York Region,NY,13354,43.243,-75.258
2009,Central New York Region,NY,13355,42.8193,-75.4617
2010,Central New York Region,NY,13357,43.0146,-75.044
2011,Central New York Region,NY,13361,42.8695,-74.8158
2012,Central New York Region,NY,13363,43.3021,-75.518
2013,Central New York Region,NY,13365,43.0437,-74.8587
2014,Central New York Region,NY,13401,43.2777,-75.6926
2015,Central New York Region,NY,13402,42.8981,-75.515
2016,Central New York Region,NY,13403,43.1509,-75.2676
2017,Central New York Region,NY,13406,43.1423,-74.9142
2018,Central New York Region,NY,13407,43.009,-75.0054
2019,Central New York Region,NY,13408,42.902,-75.6525
2020,Central New York Region,NY,13409,42.986,-75.5374
2021,Central New York Region,NY,13411,42.6178,-75.2348
2022,Central New York Region,NY,13413,43.0573,-75.2133
2023,Central New York Region,NY,13415,42.5952,-75.1963
2024,Central New York Region,NY,13416,43.1883,-75.0157
2025,Central New York Region,NY,13417,43.1033,-75.2903
2026,Central New York Region,NY,13418,42.8502,-75.3894
2027,Central New York Region,NY,13326,42.6997,-74.9289
2028,Central New York Region,NY,13328,42.9928,-75.429
2029,Central New York Region,NY,13340,43.0343,-75.0709
2030,Central New York Region,NY,13342,42.6561,-75.1846
2031,Central New York Region,NY,13346,42.8235,-75.5452
2032,Central New York Region,NY,13348,42.66,-75.0504
2033,Central New York Region,NY,13350,43.0268,-74.9897
2034,Central New York Region,NY,13332,42.7816,-75.6197
2035,Central New York Region,NY,13333,42.8353,-74.7948
2036,Central New York Region,NY,13334,42.8516,-75.6097
2037,Central New York Region,NY,13335,42.6976,-75.2443
2038,Central New York Region,NY,13337,42.7218,-74.9815
2039,Central New York Region,NY,13338,43.4383,-75.2052
2040,Central New York Region,NY,13303,43.3025,-75.4449
2041,Central New York Region,NY,13304,43.2728,-75.1871
2042,Central New York Region,NY,13308,43.211,-75.7212
2043,Central New York Region,NY,13309,43.5262,-75.3772
2044,Central New York Region,NY,13310,42.8856,-75.5821
2045,Central New York Region,NY,13314,42.8127,-75.326
2046,Central New York Region,NY,13315,42.7906,-75.1144
2047,Central New York Region,NY,13316,43.3367,-75.8936
2048,Central New York Region,NY,13158,42.7371,-75.9469
2049,Central New York Region,NY,13159,42.7978,-76.1092
2050,Central New York Region,NY,13160,42.8423,-76.688
2051,Central New York Region,NY,13164,43.088,-76.2756
2052,Central New York Region,NY,13165,42.9042,-76.8608
2053,Central New York Region,NY,13166,43.0478,-76.5597
2054,Central New York Region,NY,13318,42.9438,-75.2544
2055,Central New York Region,NY,13319,43.0283,-75.2714
2056,Central New York Region,NY,13320,42.7982,-74.748
2057,Central New York Region,NY,13322,42.9727,-75.249
2058,Central New York Region,NY,13323,43.0507,-75.3818
2059,Central New York Region,NY,13116,43.0767,-76.0073
2060,Central New York Region,NY,13118,42.7104,-76.4198
2061,Central New York Region,NY,13120,42.9756,-76.1416
2062,Central New York Region,NY,13122,42.8472,-75.9144
2063,Central New York Region,NY,13124,42.6356,-75.8081
2064,Central New York Region,NY,13136,42.6072,-75.8295
2065,Central New York Region,NY,13140,43.0367,-76.6284
2066,Central New York Region,NY,13148,42.9115,-76.8008
2067,Central New York Region,NY,13152,42.9483,-76.4303
2068,Central New York Region,NY,13155,42.6502,-75.7839
2069,Central New York Region,NY,13202,43.0472,-76.1507
2070,Central New York Region,NY,13203,43.0564,-76.1401
2071,Central New York Region,NY,13204,43.0424,-76.1642
2072,Central New York Region,NY,13205,43.0249,-76.1474
2073,Central New York Region,NY,13206,43.0735,-76.1118
2074,Central New York Region,NY,13207,43.0062,-76.1557
2075,Central New York Region,NY,13208,43.0657,-76.1514
2076,Central New York Region,NY,13209,43.0581,-76.2195
2077,Central New York Region,NY,13210,43.0442,-76.1356
2078,Central New York Region,NY,13211,43.0995,-76.1461
2079,Central New York Region,NY,13212,43.1315,-76.1321
2080,Central New York Region,NY,13214,43.04,-76.0669
2081,Central New York Region,NY,13215,43.0174,-76.1958
2082,Central New York Region,NY,13219,43.0448,-76.2427
2083,Central New York Region,NY,13224,43.0466,-76.1051
2084,Central New York Region,NY,13301,43.4219,-75.213
2085,Central New York Region,NY,13029,43.2291,-76.139
2086,Central New York Region,NY,13030,43.1573,-75.9802
2087,Central New York Region,NY,13031,43.0361,-76.2915
2088,Central New York Region,NY,13032,43.0798,-75.7538
2089,Central New York Region,NY,13045,42.5989,-76.2793
2090,Central New York Region,NY,13052,42.7567,-75.8836
2091,Central New York Region,NY,13053,42.5116,-76.2455
2092,Central New York Region,NY,13054,43.1217,-75.6703
2093,Central New York Region,NY,13057,43.0693,-76.0729
2094,Central New York Region,NY,13060,43.0374,-76.4285
2095,Central New York Region,NY,13061,42.8686,-75.7513
2096,Central New York Region,NY,13063,42.8366,-75.9876
2097,Central New York Region,NY,13066,43.0252,-76.0096
2098,Central New York Region,NY,13068,42.486,-76.3741
2099,Central New York Region,NY,13037,43.0527,-75.9212
2100,Central New York Region,NY,13039,43.1529,-76.1192
2101,Central New York Region,NY,13040,42.5419,-75.9003
2102,Central New York Region,NY,13041,43.1645,-76.142
2103,Central New York Region,NY,13042,43.2299,-75.8666
2104,Central New York Region,NY,13071,42.667,-76.5339
2105,Central New York Region,NY,13072,42.7683,-75.7371
2106,Central New York Region,NY,13073,42.6226,-76.4244
2107,Central New York Region,NY,13077,42.7965,-76.2971
2108,Central New York Region,NY,13078,42.9911,-76.0754
2109,Central New York Region,NY,13080,43.1344,-76.5222
2110,Central New York Region,NY,13081,42.6653,-76.6158
2111,Central New York Region,NY,13082,43.0979,-75.9446
2112,Central New York Region,NY,13084,42.9136,-76.1153
2113,Central New York Region,NY,13088,43.1044,-76.2018
2114,Central New York Region,NY,13090,43.1293,-76.2135
2115,Central New York Region,NY,13092,42.6618,-76.4309
2116,Central New York Region,NY,13101,42.5917,-76.0956
2117,Central New York Region,NY,13104,43.0016,-75.9822
2118,Central New York Region,NY,13108,42.9817,-76.3392
2119,Central New York Region,NY,13110,42.8861,-76.2915
2120,Central New York Region,NY,13034,42.9155,-76.7261
2121,Central New York Region,NY,13035,42.9325,-75.8499
2122,Central New York Region,NY,13112,43.0985,-76.4259
2123,Central New York Region,NY,13021,42.9307,-76.5677
2124,Central New York Region,NY,13026,42.7509,-76.6975
2125,Central New York Region,NY,13027,43.1331,-76.3098
2126,Central New York Region,NY,12776,42.0003,-74.997
2127,Central New York Region,NY,12474,42.2838,-74.565
2128,Central New York Region,NY,12155,42.4893,-74.8128
2129,Central New York Region,NY,12197,42.5939,-74.7495
2130,Central New York Region,NY,12421,42.2367,-74.5562
2131,Central New York Region,NY,12430,42.1948,-74.5498
2132,Central New York Region,NY,12434,42.3734,-74.4696
2133,Central New York Region,NY,12455,42.0714,-74.5999
2134,Central New York Region,NY,12167,42.4454,-74.5808
2135,Central New York Region,NY,12064,42.5837,-74.6319
2136,Central New York Region,NY,12116,42.5142,-74.9791
4781,Eastern Lake Ontario Region,NY,14526,43.1306,-77.4454
4782,Eastern Lake Ontario Region,NY,14805,42.3154,-76.7245
4783,Eastern Lake Ontario Region,NY,13028,43.2445,-75.9416
4784,Eastern Lake Ontario Region,NY,13114,43.458,-76.2355
4785,Eastern Lake Ontario Region,NY,13036,43.2826,-76.147
4786,Eastern Lake Ontario Region,NY,13111,43.2633,-76.5981
4787,Eastern Lake Ontario Region,NY,13103,43.3165,-76.081
4788,Eastern Lake Ontario Region,NY,13083,43.6414,-76.0662
4789,Eastern Lake Ontario Region,NY,13074,43.3175,-76.5755
4790,Eastern Lake Ontario Region,NY,13076,43.3555,-76.1484
4791,Eastern Lake Ontario Region,NY,13044,43.252,-76.0024
4792,Eastern Lake Ontario Region,NY,13069,43.3183,-76.4144
4793,Eastern Lake Ontario Region,NY,13033,43.1677,-76.5752
4794,Eastern Lake Ontario Region,NY,13302,43.5051,-76.0016
4795,Eastern Lake Ontario Region,NY,13156,43.3337,-76.7267
4796,Eastern Lake Ontario Region,NY,13142,43.5667,-76.1289
4797,Eastern Lake Ontario Region,NY,13143,43.2446,-76.726
4798,Eastern Lake Ontario Region,NY,13144,43.5762,-76.0144
4799,Eastern Lake Ontario Region,NY,13145,43.6497,-76.0851
4800,Eastern Lake Ontario Region,NY,13146,43.0686,-76.7594
4801,Eastern Lake Ontario Region,NY,13126,43.4104,-76.6188
4802,Eastern Lake Ontario Region,NY,13131,43.4056,-76.1295
4803,Eastern Lake Ontario Region,NY,13132,43.2304,-76.2175
4804,Eastern Lake Ontario Region,NY,13135,43.2322,-76.2966
4805,Eastern Lake Ontario Region,NY,13167,43.3054,-76.0557
4806,Eastern Lake Ontario Region,NY,13437,43.5303,-75.7247
4807,Eastern Lake Ontario Region,NY,13601,43.9734,-75.9087
4808,Eastern Lake Ontario Region,NY,13602,44.0563,-75.7913
4809,Eastern Lake Ontario Region,NY,13603,44.0467,-75.8172
4810,Eastern Lake Ontario Region,NY,13605,43.8114,-76.0235
4811,Eastern Lake Ontario Region,NY,13606,43.8686,-76.0072
4812,Eastern Lake Ontario Region,NY,13607,44.3376,-75.9134
4813,Eastern Lake Ontario Region,NY,13608,44.2848,-75.5766
4814,Eastern Lake Ontario Region,NY,13611,43.7821,-76.1153
4815,Eastern Lake Ontario Region,NY,13612,44.0106,-75.7949
4816,Eastern Lake Ontario Region,NY,13493,43.4228,-75.8882
4817,Eastern Lake Ontario Region,NY,13616,44.0299,-75.8437
4818,Eastern Lake Ontario Region,NY,13634,44.0067,-76.0433
4819,Eastern Lake Ontario Region,NY,13626,43.9035,-75.7861
4820,Eastern Lake Ontario Region,NY,13622,44.0714,-76.1416
4821,Eastern Lake Ontario Region,NY,13624,44.2379,-76.0838
4822,Eastern Lake Ontario Region,NY,13618,44.1722,-76.2429
4823,Eastern Lake Ontario Region,NY,13619,43.9389,-75.6492
4824,Eastern Lake Ontario Region,NY,14580,43.2144,-77.4346
4825,Eastern Lake Ontario Region,NY,14586,43.0383,-77.6661
4826,Eastern Lake Ontario Region,NY,14589,43.228,-77.1902
4827,Eastern Lake Ontario Region,NY,14590,43.2196,-76.8139
4828,Eastern Lake Ontario Region,NY,14568,43.1248,-77.3034
4829,Eastern Lake Ontario Region,NY,14555,43.273,-76.983
4830,Eastern Lake Ontario Region,NY,14559,43.1888,-77.8029
4831,Eastern Lake Ontario Region,NY,14546,43.0283,-77.7501
4832,Eastern Lake Ontario Region,NY,14543,42.9964,-77.6422
4833,Eastern Lake Ontario Region,NY,14534,43.0901,-77.5176
4834,Eastern Lake Ontario Region,NY,14522,43.0596,-77.2336
4835,Eastern Lake Ontario Region,NY,14519,43.2263,-77.283
4836,Eastern Lake Ontario Region,NY,14505,43.1446,-77.1873
4837,Eastern Lake Ontario Region,NY,14506,42.998,-77.5046
4838,Eastern Lake Ontario Region,NY,14513,43.0025,-77.0946
4839,Eastern Lake Ontario Region,NY,14514,43.1185,-77.8025
4840,Eastern Lake Ontario Region,NY,14516,43.1839,-76.8898
4841,Eastern Lake Ontario Region,NY,14489,42.9993,-76.9562
4842,Eastern Lake Ontario Region,NY,14502,43.0645,-77.3147
4843,Eastern Lake Ontario Region,NY,14472,42.9393,-77.5743
4844,Eastern Lake Ontario Region,NY,14470,43.298,-77.9938
4845,Eastern Lake Ontario Region,NY,14467,43.0571,-77.617
4846,Eastern Lake Ontario Region,NY,14468,43.2877,-77.7902
4847,Eastern Lake Ontario Region,NY,14433,43.0865,-76.8726
4848,Eastern Lake Ontario Region,NY,14464,43.2898,-77.9183
4849,Eastern Lake Ontario Region,NY,14445,43.1135,-77.4861
4850,Eastern Lake Ontario Region,NY,14450,43.0958,-77.4438
4851,Eastern Lake Ontario Region,NY,14420,43.2151,-77.9383
4852,Eastern Lake Ontario Region,NY,14410,43.1972,-77.854
4853,Eastern Lake Ontario Region,NY,14428,43.0917,-77.8066
4854,Eastern Lake Ontario Region,NY,13685,43.9469,-76.1165
4855,Eastern Lake Ontario Region,NY,13691,44.2134,-75.8015
4856,Eastern Lake Ontario Region,NY,13693,44.0409,-76.2747
4857,Eastern Lake Ontario Region,NY,13682,43.8474,-75.9415
4858,Eastern Lake Ontario Region,NY,13679,44.3519,-75.6473
4859,Eastern Lake Ontario Region,NY,13665,44.0665,-75.4903
4860,Eastern Lake Ontario Region,NY,13661,43.6708,-76.1817
4861,Eastern Lake Ontario Region,NY,13673,44.1482,-75.7076
4862,Eastern Lake Ontario Region,NY,13675,44.2671,-75.8491
4863,Eastern Lake Ontario Region,NY,13659,43.7671,-75.9514
4864,Eastern Lake Ontario Region,NY,13640,44.3505,-75.9304
4865,Eastern Lake Ontario Region,NY,13656,44.1968,-75.9637
4866,Eastern Lake Ontario Region,NY,13650,43.7757,-76.2177
4867,Eastern Lake Ontario Region,NY,13636,43.7402,-76.1128
4868,Eastern Lake Ontario Region,NY,13637,44.0452,-75.8574
4869,Eastern Lake Ontario Region,NY,13638,44.0217,-75.761
4870,Eastern Lake Ontario Region,NY,14604,43.1581,-77.6047
4871,Eastern Lake Ontario Region,NY,14605,43.1677,-77.6045
4872,Eastern Lake Ontario Region,NY,14606,43.1666,-77.6462
4873,Eastern Lake Ontario Region,NY,14607,43.1505,-77.5911
4874,Eastern Lake Ontario Region,NY,14608,43.1488,-77.6209
4875,Eastern Lake Ontario Region,NY,14609,43.1882,-77.5671
4876,Eastern Lake Ontario Region,NY,14610,43.1472,-77.5528
4877,Eastern Lake Ontario Region,NY,14611,43.1503,-77.6365
4878,Eastern Lake Ontario Region,NY,14612,43.2562,-77.6182
4879,Eastern Lake Ontario Region,NY,14613,43.1807,-77.6351
4880,Eastern Lake Ontario Region,NY,14614,43.1575,-77.6144
4881,Eastern Lake Ontario Region,NY,14615,43.2076,-77.658
4882,Eastern Lake Ontario Region,NY,14616,43.236,-77.6525
4883,Eastern Lake Ontario Region,NY,14617,43.2068,-77.6009
4884,Eastern Lake Ontario Region,NY,14618,43.103,-77.5707
4885,Eastern Lake Ontario Region,NY,14619,43.1356,-77.6451
4886,Eastern Lake Ontario Region,NY,14620,43.1307,-77.5947
4887,Eastern Lake Ontario Region,NY,14621,43.1933,-77.6067
4888,Eastern Lake Ontario Region,NY,14622,43.2037,-77.5618
4889,Eastern Lake Ontario Region,NY,14623,43.1022,-77.6213
4890,Eastern Lake Ontario Region,NY,14624,43.141,-77.7541
4891,Eastern Lake Ontario Region,NY,14625,43.1338,-77.4931
4892,Eastern Lake Ontario Region,NY,14626,43.2102,-77.6944
4893,Eastern Lake Ontario Region,NY,14627,43.1287,-77.6286
4894,Eastern Lake Ontario Region,NY,14642,43.1243,-77.6236
8030,Long Island,NY,6390,41.264,-72.0174
8031,Long Island,NY,11701,40.699,-73.4209
8032,Long Island,NY,11702,40.6971,-73.3212
8033,Long Island,NY,11703,40.7249,-73.3201
8034,Long Island,NY,11704,40.7174,-73.3507
8035,Long Island,NY,11705,40.7476,-73.0494
8036,Long Island,NY,11706,40.7211,-73.2484
8037,Long Island,NY,11709,40.9074,-73.5663
8038,Long Island,NY,11710,40.6669,-73.5282
8039,Long Island,NY,11713,40.7587,-72.938
8040,Long Island,NY,11714,40.7341,-73.4868
8041,Long Island,NY,11715,40.7498,-73.0327
8042,Long Island,NY,11716,40.7762,-73.0979
8043,Long Island,NY,11717,40.7811,-73.246
8044,Long Island,NY,11718,40.724,-73.2682
8045,Long Island,NY,11719,40.7816,-72.9157
8046,Long Island,NY,11720,40.8584,-73.0897
8047,Long Island,NY,11721,40.8901,-73.3776
8048,Long Island,NY,11722,40.7956,-73.1989
8049,Long Island,NY,11724,40.8668,-73.4717
8050,Long Island,NY,11725,40.841,-73.2987
8051,Long Island,NY,11726,40.6817,-73.3983
8052,Long Island,NY,11727,40.8733,-73.016
8053,Long Island,NY,11729,40.7576,-73.3251
8054,Long Island,NY,11730,40.7397,-73.1785
8055,Long Island,NY,11731,40.8762,-73.3283
8056,Long Island,NY,11732,40.8498,-73.5342
8057,Long Island,NY,11733,40.9401,-73.107
8058,Long Island,NY,11735,40.7306,-73.443
8059,Long Island,NY,11738,40.8322,-73.0333
8060,Long Island,NY,11740,40.867,-73.3642
8061,Long Island,NY,11741,40.7776,-73.0736
8062,Long Island,NY,11742,40.8156,-73.045
8063,Long Island,NY,11743,40.8712,-73.428
8064,Long Island,NY,11746,40.8497,-73.4083
8065,Long Island,NY,11747,40.7744,-73.4191
8066,Long Island,NY,11749,40.8075,-73.1846
8067,Long Island,NY,11751,40.7301,-73.2175
8068,Long Island,NY,11752,40.7496,-73.1922
8069,Long Island,NY,11753,40.7836,-73.539
8070,Long Island,NY,11754,40.8847,-73.2552
8071,Long Island,NY,11755,40.8688,-73.117
8072,Long Island,NY,11756,40.7249,-73.5206
8073,Long Island,NY,11757,40.6867,-73.3755
8074,Long Island,NY,11758,40.6905,-73.4708
8075,Long Island,NY,11762,40.6786,-73.4537
8076,Long Island,NY,11763,40.8542,-72.9662
8077,Long Island,NY,11764,40.9503,-72.9993
8078,Long Island,NY,11765,40.8931,-73.5588
8079,Long Island,NY,11766,40.9365,-73.0276
8080,Long Island,NY,11767,40.8376,-73.1556
8081,Long Island,NY,11768,40.9007,-73.3462
8082,Long Island,NY,11769,40.7412,-73.1266
8083,Long Island,NY,11770,40.6453,-73.1529
8084,Long Island,NY,11771,40.8689,-73.532
8085,Long Island,NY,11772,40.7653,-73.0125
8086,Long Island,NY,11776,40.9278,-73.0497
8087,Long Island,NY,11777,40.944,-73.0636
8088,Long Island,NY,11778,40.9557,-72.9259
8089,Long Island,NY,11779,40.8231,-73.1405
8090,Long Island,NY,11780,40.8789,-73.1556
8091,Long Island,NY,11782,40.7425,-73.0853
8092,Long Island,NY,11783,40.664,-73.4913
8093,Long Island,NY,11784,40.862,-73.0508
8094,Long Island,NY,11786,40.9526,-72.8971
8095,Long Island,NY,11787,40.8541,-73.1939
8096,Long Island,NY,11788,40.8188,-73.2001
8097,Long Island,NY,11789,40.9575,-72.9742
8098,Long Island,NY,11790,40.8811,-73.1201
8099,Long Island,NY,11791,40.8261,-73.5009
8100,Long Island,NY,11792,40.9629,-72.8158
8101,Long Island,NY,11793,40.6707,-73.5076
8102,Long Island,NY,11794,40.9058,-73.1172
8103,Long Island,NY,11795,40.7239,-73.3003
8104,Long Island,NY,11796,40.735,-73.0988
8105,Long Island,NY,11797,40.808,-73.4825
8106,Long Island,NY,11798,40.7542,-73.3663
8107,Long Island,NY,11801,40.7676,-73.5222
8108,Long Island,NY,11803,40.7773,-73.4917
8109,Long Island,NY,11804,40.7654,-73.4582
8110,Long Island,NY,11901,40.922,-72.6612
8111,Long Island,NY,11933,40.9336,-72.7138
8112,Long Island,NY,11934,40.7999,-72.7911
8113,Long Island,NY,11935,41.0119,-72.4691
8114,Long Island,NY,11937,40.9688,-72.1867
8115,Long Island,NY,11939,41.121,-72.3399
8116,Long Island,NY,11940,40.8158,-72.745
8117,Long Island,NY,11941,40.8268,-72.7345
8118,Long Island,NY,11942,40.8397,-72.5778
8119,Long Island,NY,11944,41.1017,-72.3654
8120,Long Island,NY,11946,40.8728,-72.5294
8121,Long Island,NY,11948,40.9706,-72.5463
8122,Long Island,NY,11949,40.8371,-72.8152
8123,Long Island,NY,11950,40.8027,-72.8472
8124,Long Island,NY,11951,40.7673,-72.8446
8125,Long Island,NY,11952,40.9938,-72.5377
8126,Long Island,NY,11953,40.8821,-72.9363
8127,Long Island,NY,11954,41.0379,-71.9445
8128,Long Island,NY,11955,40.8192,-72.8164
8129,Long Island,NY,11957,41.1555,-72.2514
8130,Long Island,NY,11958,41.0501,-72.4675
8131,Long Island,NY,11961,40.919,-72.8953
8132,Long Island,NY,11963,40.9961,-72.2938
8133,Long Island,NY,11964,41.0696,-72.3395
8134,Long Island,NY,11965,41.0834,-72.3526
8135,Long Island,NY,11967,40.795,-72.8674
8136,Long Island,NY,11968,40.8897,-72.3869
8137,Long Island,NY,11971,41.0539,-72.4264
8138,Long Island,NY,11976,40.9098,-72.359
8139,Long Island,NY,11977,40.8194,-72.6723
8140,Long Island,NY,11978,40.8156,-72.6441
8141,Long Island,NY,11980,40.8423,-72.9387
8142,Long Island,NY,11003,40.7035,-73.6925
8143,Long Island,NY,11010,40.7094,-73.6741
8144,Long Island,NY,11020,40.7723,-73.7241
8145,Long Island,NY,11021,40.787,-73.7274
8146,Long Island,NY,11023,40.8016,-73.7307
8147,Long Island,NY,11024,40.8098,-73.7363
8148,Long Island,NY,11030,40.7967,-73.6992
8149,Long Island,NY,11040,40.7326,-73.6864
8150,Long Island,NY,11042,40.76,-73.6954
8151,Long Island,NY,11050,40.8417,-73.7083
8152,Long Island,NY,11501,40.7455,-73.6383
8153,Long Island,NY,11507,40.7704,-73.6504
8154,Long Island,NY,11509,40.5894,-73.7358
8155,Long Island,NY,11510,40.6629,-73.6112
8156,Long Island,NY,11514,40.7499,-73.6179
8157,Long Island,NY,11516,40.6245,-73.7269
8158,Long Island,NY,11518,40.6422,-73.665
8159,Long Island,NY,11520,40.6549,-73.5871
8160,Long Island,NY,11530,40.7289,-73.6358
8161,Long Island,NY,11542,40.8585,-73.6291
8162,Long Island,NY,11545,40.8335,-73.6257
8163,Long Island,NY,11548,40.811,-73.6275
8164,Long Island,NY,11549,40.716,-73.5995
8165,Long Island,NY,11550,40.7105,-73.6242
8166,Long Island,NY,11552,40.7038,-73.6542
8167,Long Island,NY,11553,40.6948,-73.5954
8168,Long Island,NY,11554,40.7215,-73.5524
8169,Long Island,NY,11557,40.6392,-73.7004
8170,Long Island,NY,11558,40.6032,-73.6542
8171,Long Island,NY,11559,40.6188,-73.7341
8172,Long Island,NY,11560,40.8765,-73.6037
8173,Long Island,NY,11561,40.5879,-73.654
8174,Long Island,NY,11563,40.6558,-73.6721
8175,Long Island,NY,11565,40.6754,-73.6696
8176,Long Island,NY,11566,40.6615,-73.5534
8177,Long Island,NY,11568,40.7836,-73.6069
8178,Long Island,NY,11570,40.6591,-73.6474
8179,Long Island,NY,11572,40.638,-73.6501
8180,Long Island,NY,11575,40.6802,-73.5859
8181,Long Island,NY,11576,40.7989,-73.6508
8182,Long Island,NY,11577,40.7864,-73.6497
8183,Long Island,NY,11579,40.8462,-73.6444
8184,Long Island,NY,11580,40.6673,-73.6981
8185,Long Island,NY,11581,40.6537,-73.7
8186,Long Island,NY,11590,40.7551,-73.588
8187,Long Island,NY,11596,40.7588,-73.6453
8188,Long Island,NY,11598,40.633,-73.7132
8350,Lower Hudson Valley Region,NY,10958,41.4114,-74.413
8351,Lower Hudson Valley Region,NY,10969,41.2991,-74.4603
8352,Lower Hudson Valley Region,NY,10975,41.2489,-74.1773
8353,Lower Hudson Valley Region,NY,10973,41.392,-74.4814
8354,Lower Hudson Valley Region,NY,10985,41.5666,-74.3267
8355,Lower Hudson Valley Region,NY,10990,41.2573,-74.3615
8356,Lower Hudson Valley Region,NY,10992,41.4282,-74.1603
8357,Lower Hudson Valley Region,NY,10987,41.1905,-74.1854
8358,Lower Hudson Valley Region,NY,10996,41.4025,-73.9737
8359,Lower Hudson Valley Region,NY,10998,41.3181,-74.5627
8360,Lower Hudson Valley Region,NY,12401,41.9308,-74.0139
8361,Lower Hudson Valley Region,NY,12404,41.8121,-74.2534
8362,Lower Hudson Valley Region,NY,12406,42.1106,-74.5562
8363,Lower Hudson Valley Region,NY,12456,42.0351,-73.9949
8364,Lower Hudson Valley Region,NY,12457,42.0426,-74.2764
8365,Lower Hudson Valley Region,NY,12458,41.8531,-74.4807
8366,Lower Hudson Valley Region,NY,12464,42.0874,-74.3149
8367,Lower Hudson Valley Region,NY,12465,42.129,-74.4738
8368,Lower Hudson Valley Region,NY,12466,41.907,-73.9764
8369,Lower Hudson Valley Region,NY,12440,41.8275,-74.1286
8370,Lower Hudson Valley Region,NY,12443,41.9225,-74.0609
8371,Lower Hudson Valley Region,NY,12446,41.7745,-74.2991
8372,Lower Hudson Valley Region,NY,12448,42.0688,-74.1928
8373,Lower Hudson Valley Region,NY,12449,41.9845,-73.9938
8374,Lower Hudson Valley Region,NY,12435,41.7465,-74.5253
8375,Lower Hudson Valley Region,NY,12416,42.1024,-74.3035
8376,Lower Hudson Valley Region,NY,12419,41.8507,-74.1046
8377,Lower Hudson Valley Region,NY,12428,41.715,-74.3924
8378,Lower Hudson Valley Region,NY,12409,42.0278,-74.1879
8379,Lower Hudson Valley Region,NY,12410,42.1045,-74.4455
8380,Lower Hudson Valley Region,NY,12411,41.8769,-74.0426
8381,Lower Hudson Valley Region,NY,12412,42.0125,-74.2691
8382,Lower Hudson Valley Region,NY,12477,42.0771,-73.9519
8383,Lower Hudson Valley Region,NY,12480,42.1631,-74.4087
8384,Lower Hudson Valley Region,NY,12481,41.9732,-74.2208
8385,Lower Hudson Valley Region,NY,12461,41.89,-74.3064
8386,Lower Hudson Valley Region,NY,12472,41.8423,-74.0805
8387,Lower Hudson Valley Region,NY,12484,41.8501,-74.1609
8388,Lower Hudson Valley Region,NY,12486,41.8327,-74.0744
8389,Lower Hudson Valley Region,NY,12487,41.8936,-73.9755
8390,Lower Hudson Valley Region,NY,12498,42.0425,-74.1225
8391,Lower Hudson Valley Region,NY,12501,41.8458,-73.5586
8392,Lower Hudson Valley Region,NY,12494,41.9674,-74.2879
8393,Lower Hudson Valley Region,NY,12495,42.0656,-74.2526
8394,Lower Hudson Valley Region,NY,12507,42.0035,-73.9255
8395,Lower Hudson Valley Region,NY,12508,41.5054,-73.9702
8396,Lower Hudson Valley Region,NY,12514,41.8307,-73.7634
8397,Lower Hudson Valley Region,NY,12515,41.6975,-74.0535
8398,Lower Hudson Valley Region,NY,12518,41.4376,-74.0389
8399,Lower Hudson Valley Region,NY,12520,41.4442,-74.0202
8400,Lower Hudson Valley Region,NY,12522,41.7375,-73.5744
8401,Lower Hudson Valley Region,NY,12524,41.5341,-73.8998
8402,Lower Hudson Valley Region,NY,12525,41.6808,-74.1503
8403,Lower Hudson Valley Region,NY,12528,41.7204,-73.9668
8404,Lower Hudson Valley Region,NY,12777,41.5835,-74.7284
8405,Lower Hudson Valley Region,NY,12779,41.7124,-74.6326
8406,Lower Hudson Valley Region,NY,12780,41.4033,-74.7299
8407,Lower Hudson Valley Region,NY,12783,41.7667,-74.8505
8408,Lower Hudson Valley Region,NY,12786,41.66,-74.8497
8409,Lower Hudson Valley Region,NY,12787,41.8,-74.8373
8410,Lower Hudson Valley Region,NY,12788,41.764,-74.6007
8411,Lower Hudson Valley Region,NY,12789,41.707,-74.5696
8412,Lower Hudson Valley Region,NY,12790,41.5939,-74.5009
8413,Lower Hudson Valley Region,NY,12791,41.8028,-74.8924
8414,Lower Hudson Valley Region,NY,12792,41.5231,-74.9379
8415,Lower Hudson Valley Region,NY,12531,41.5193,-73.6953
8416,Lower Hudson Valley Region,NY,12533,41.5819,-73.8089
8417,Lower Hudson Valley Region,NY,12538,41.7862,-73.9348
8418,Lower Hudson Valley Region,NY,12540,41.6678,-73.7964
8419,Lower Hudson Valley Region,NY,12542,41.5873,-73.9763
8420,Lower Hudson Valley Region,NY,12543,41.4847,-74.2167
8421,Lower Hudson Valley Region,NY,12545,41.7864,-73.6888
8422,Lower Hudson Valley Region,NY,12546,41.9529,-73.507
8423,Lower Hudson Valley Region,NY,12547,41.6552,-73.9592
8424,Lower Hudson Valley Region,NY,12548,41.6649,-74.1019
8425,Lower Hudson Valley Region,NY,12549,41.5235,-74.2335
8426,Lower Hudson Valley Region,NY,12550,41.5021,-74.0118
8427,Lower Hudson Valley Region,NY,12553,41.4746,-74.0182
8428,Lower Hudson Valley Region,NY,12561,41.7462,-74.0835
8429,Lower Hudson Valley Region,NY,12563,41.4733,-73.5465
8430,Lower Hudson Valley Region,NY,12564,41.563,-73.5977
8431,Lower Hudson Valley Region,NY,12566,41.6065,-74.3495
8432,Lower Hudson Valley Region,NY,12567,42.0151,-73.6878
8433,Lower Hudson Valley Region,NY,12569,41.7488,-73.8286
8434,Lower Hudson Valley Region,NY,12570,41.616,-73.6995
8435,Lower Hudson Valley Region,NY,12571,41.993,-73.879
8436,Lower Hudson Valley Region,NY,12572,41.9285,-73.9104
8437,Lower Hudson Valley Region,NY,12575,41.475,-74.1262
8438,Lower Hudson Valley Region,NY,12577,41.4501,-74.1192
8439,Lower Hudson Valley Region,NY,12578,41.8077,-73.7706
8440,Lower Hudson Valley Region,NY,12580,41.8348,-73.8972
8441,Lower Hudson Valley Region,NY,12581,41.9042,-73.6492
8442,Lower Hudson Valley Region,NY,12582,41.5674,-73.7423
8443,Lower Hudson Valley Region,NY,12583,42.0636,-73.8405
8444,Lower Hudson Valley Region,NY,12585,41.728,-73.7154
8445,Lower Hudson Valley Region,NY,12586,41.5604,-74.191
8446,Lower Hudson Valley Region,NY,12589,41.6029,-74.1261
8447,Lower Hudson Valley Region,NY,12590,41.5971,-73.9164
8448,Lower Hudson Valley Region,NY,12592,41.773,-73.56
8449,Lower Hudson Valley Region,NY,12594,41.6316,-73.5707
8450,Lower Hudson Valley Region,NY,12601,41.7033,-73.9271
8451,Lower Hudson Valley Region,NY,12603,41.6967,-73.8987
8452,Lower Hudson Valley Region,NY,12604,41.6865,-73.8977
8453,Lower Hudson Valley Region,NY,12701,41.6541,-74.6905
8454,Lower Hudson Valley Region,NY,12719,41.4797,-74.9162
8455,Lower Hudson Valley Region,NY,12720,41.671,-74.8991
8456,Lower Hudson Valley Region,NY,12721,41.5716,-74.4232
8457,Lower Hudson Valley Region,NY,12723,41.7667,-75.0583
8458,Lower Hudson Valley Region,NY,12725,41.9266,-74.5512
8459,Lower Hudson Valley Region,NY,12726,41.7092,-74.9718
8460,Lower Hudson Valley Region,NY,12727,41.6804,-74.9931
8461,Lower Hudson Valley Region,NY,12729,41.5028,-74.6468
8462,Lower Hudson Valley Region,NY,12732,41.529,-74.8822
8463,Lower Hudson Valley Region,NY,12733,41.7344,-74.6237
8464,Lower Hudson Valley Region,NY,12734,41.7438,-74.735
8465,Lower Hudson Valley Region,NY,12736,41.8503,-75.0201
8466,Lower Hudson Valley Region,NY,12737,41.5184,-74.8164
8467,Lower Hudson Valley Region,NY,12738,41.6515,-74.5855
8468,Lower Hudson Valley Region,NY,12740,41.8896,-74.4642
8469,Lower Hudson Valley Region,NY,12741,41.8163,-75.0865
8470,Lower Hudson Valley Region,NY,12742,41.7134,-74.7268
8471,Lower Hudson Valley Region,NY,12743,41.5213,-74.8485
8472,Lower Hudson Valley Region,NY,12745,41.7683,-75.0289
8473,Lower Hudson Valley Region,NY,12746,41.414,-74.6346
8474,Lower Hudson Valley Region,NY,12747,41.7405,-74.674
8475,Lower Hudson Valley Region,NY,12748,41.7828,-74.9348
8476,Lower Hudson Valley Region,NY,12750,41.7459,-74.9533
8477,Lower Hudson Valley Region,NY,12751,41.6798,-74.6723
8478,Lower Hudson Valley Region,NY,12752,41.6838,-74.9882
8479,Lower Hudson Valley Region,NY,12754,41.7995,-74.7462
8480,Lower Hudson Valley Region,NY,12758,41.8989,-74.8295
8481,Lower Hudson Valley Region,NY,12759,41.7781,-74.6558
8482,Lower Hudson Valley Region,NY,12760,41.9287,-75.0827
8483,Lower Hudson Valley Region,NY,12762,41.6745,-74.8036
8484,Lower Hudson Valley Region,NY,12763,41.6933,-74.5364
8485,Lower Hudson Valley Region,NY,12764,41.6049,-75.064
8486,Lower Hudson Valley Region,NY,12765,41.8466,-74.6306
8487,Lower Hudson Valley Region,NY,12766,41.8045,-74.9727
8488,Lower Hudson Valley Region,NY,12768,41.8983,-74.7318
8489,Lower Hudson Valley Region,NY,12770,41.4448,-74.8234
8490,Lower Hudson Valley Region,NY,12771,41.3744,-74.6869
8491,Lower Hudson Valley Region,NY,12775,41.6098,-74.5728
8492,Lower Hudson Valley Region,NY,12433,42.0019,-74.1454
8493,Lower Hudson Valley Region,NY,10509,41.3622,-73.5742
8494,Lower Hudson Valley Region,NY,10516,41.4205,-73.9534
8495,Lower Hudson Valley Region,NY,10541,41.3433,-73.7277
8496,Lower Hudson Valley Region,NY,10579,41.3805,-73.8592
8497,Lower Hudson Valley Region,NY,10524,41.3805,-73.9404
8498,Lower Hudson Valley Region,NY,10512,41.4603,-73.6567
8499,Lower Hudson Valley Region,NY,10537,41.338,-73.8855
8500,Lower Hudson Valley Region,NY,10916,41.4547,-74.2598
8501,Lower Hudson Valley Region,NY,10917,41.3281,-74.1227
8502,Lower Hudson Valley Region,NY,10918,41.3583,-74.2763
8503,Lower Hudson Valley Region,NY,10919,41.5144,-74.3869
8504,Lower Hudson Valley Region,NY,10924,41.4002,-74.3234
8505,Lower Hudson Valley Region,NY,10925,41.2226,-74.2904
8506,Lower Hudson Valley Region,NY,10926,41.3093,-74.1558
8507,Lower Hudson Valley Region,NY,10921,41.333,-74.3575
8508,Lower Hudson Valley Region,NY,10928,41.3702,-73.9664
8509,Lower Hudson Valley Region,NY,10930,41.3525,-74.1281
8510,Lower Hudson Valley Region,NY,10940,41.5069,-74.4891
8511,Lower Hudson Valley Region,NY,10941,41.4762,-74.3724
8512,Lower Hudson Valley Region,NY,10950,41.3409,-74.167
8513,Lower Hudson Valley Region,NY,10963,41.4684,-74.5406
10413,New York City Region,NY,10510,41.1553,-73.8267
10414,New York City Region,NY,10511,41.2586,-73.9392
10415,New York City Region,NY,10518,41.268,-73.6098
10416,New York City Region,NY,10520,41.207,-73.8841
10417,New York City Region,NY,10522,41.0147,-73.8709
10418,New York City Region,NY,10523,41.0568,-73.8169
10419,New York City Region,NY,10543,40.9531,-73.7352
10420,New York City Region,NY,10546,41.1914,-73.7985
10421,New York City Region,NY,10547,41.315,-73.8618
10422,New York City Region,NY,10548,41.2489,-73.9331
10423,New York City Region,NY,10549,41.2052,-73.727
10424,New York City Region,NY,10550,40.9096,-73.836
10425,New York City Region,NY,10552,40.9235,-73.8344
10426,New York City Region,NY,10553,40.9099,-73.8213
10427,New York City Region,NY,10560,41.3273,-73.5869
10428,New York City Region,NY,10562,41.1603,-73.8624
10429,New York City Region,NY,10566,41.2932,-73.9178
10430,New York City Region,NY,10567,41.2986,-73.8862
10431,New York City Region,NY,10570,41.1336,-73.7868
10432,New York City Region,NY,10573,40.9992,-73.6683
10433,New York City Region,NY,10576,41.1893,-73.5504
10434,New York City Region,NY,10577,41.013,-73.7014
10435,New York City Region,NY,10578,41.3256,-73.6709
10436,New York City Region,NY,10964,41.0114,-73.9265
10437,New York City Region,NY,10965,41.0606,-74.0178
10438,New York City Region,NY,10968,41.0385,-73.9225
10439,New York City Region,NY,10952,41.1168,-74.0647
10440,New York City Region,NY,10954,41.09,-74.0108
10441,New York City Region,NY,10956,41.1539,-73.9869
10442,New York City Region,NY,10931,41.1253,-74.1664
10443,New York City Region,NY,10923,41.2036,-73.9925
10444,New York City Region,NY,10927,41.1961,-73.9671
10445,New York City Region,NY,10920,41.1536,-73.9404
10446,New York City Region,NY,10538,40.9318,-73.7559
10447,New York City Region,NY,10514,41.1582,-73.7689
10448,New York City Region,NY,10526,41.2967,-73.67
10449,New York City Region,NY,10527,41.3106,-73.7583
10450,New York City Region,NY,10528,40.9669,-73.7177
10451,New York City Region,NY,10530,41.0195,-73.7973
10452,New York City Region,NY,10532,41.1061,-73.7923
10453,New York City Region,NY,10533,41.0357,-73.8682
10454,New York City Region,NY,10535,41.3336,-73.8025
10455,New York City Region,NY,10536,41.2549,-73.6885
10456,New York City Region,NY,10580,40.9834,-73.6816
10457,New York City Region,NY,10583,40.9838,-73.807
10458,New York City Region,NY,10588,41.33,-73.832
10459,New York City Region,NY,10589,41.3385,-73.7054
10460,New York City Region,NY,10590,41.2833,-73.5589
10461,New York City Region,NY,10591,41.0811,-73.8599
10462,New York City Region,NY,10594,41.1213,-73.7786
10463,New York City Region,NY,10595,41.0729,-73.7768
10464,New York City Region,NY,10597,41.2944,-73.5975
10465,New York City Region,NY,10598,41.3241,-73.8002
10466,New York City Region,NY,10601,41.0337,-73.7665
10467,New York City Region,NY,10603,41.0394,-73.7681
10468,New York City Region,NY,10604,41.0398,-73.7497
10469,New York City Region,NY,10605,41.0215,-73.7632
10470,New York City Region,NY,10606,41.0256,-73.7778
10471,New York City Region,NY,10607,41.0424,-73.8091
10472,New York City Region,NY,10701,40.9321,-73.8929
10473,New York City Region,NY,10703,40.945,-73.8872
10474,New York City Region,NY,10704,40.9159,-73.8546
10475,New York City Region,NY,10705,40.9199,-73.8981
10476,New York City Region,NY,10706,40.9956,-73.8799
10477,New York City Region,NY,10707,40.9529,-73.8243
10478,New York City Region,NY,10708,40.9369,-73.8387
10479,New York City Region,NY,10709,40.9544,-73.81
10480,New York City Region,NY,10710,40.9539,-73.8454
10481,New York City Region,NY,10801,40.9114,-73.786
10482,New York City Region,NY,10803,40.9138,-73.8067
10483,New York City Region,NY,10804,40.939,-73.7939
10484,New York City Region,NY,10805,40.9007,-73.7811
10485,New York City Region,NY,10901,41.1073,-74.1334
10486,New York City Region,NY,10911,41.3094,-73.9905
10487,New York City Region,NY,10913,41.0632,-73.9554
10488,New York City Region,NY,10001,40.7491,-73.9924
10489,New York City Region,NY,10002,40.7155,-73.9901
10490,New York City Region,NY,10003,40.7312,-73.9888
10491,New York City Region,NY,10004,40.706,-74.0126
10492,New York City Region,NY,10005,40.7059,-74.0071
10493,New York City Region,NY,10006,40.7063,-74.0134
10494,New York City Region,NY,10007,40.7133,-74.0084
10495,New York City Region,NY,10009,40.7267,-73.9797
10496,New York City Region,NY,10010,40.74,-73.9855
10497,New York City Region,NY,10011,40.7393,-73.9989
10498,New York City Region,NY,10012,40.7256,-73.9992
10499,New York City Region,NY,10013,40.7194,-74.003
10500,New York City Region,NY,10014,40.7343,-74.006
10501,New York City Region,NY,10016,40.7451,-73.9793
10502,New York City Region,NY,10017,40.7532,-73.9733
10503,New York City Region,NY,10018,40.7534,-73.9905
10504,New York City Region,NY,10019,40.7645,-73.9842
10505,New York City Region,NY,10020,40.7581,-73.979
10506,New York City Region,NY,10021,40.7703,-73.9585
10507,New York City Region,NY,10022,40.7584,-73.9687
10508,New York City Region,NY,10023,40.7759,-73.9817
10509,New York City Region,NY,10024,40.786,-73.9759
10510,New York City Region,NY,10025,40.7981,-73.9669
10511,New York City Region,NY,10026,40.8021,-73.953
10512,New York City Region,NY,10027,40.8113,-73.949
10513,New York City Region,NY,10028,40.776,-73.952
10514,New York City Region,NY,10029,40.7929,-73.9443
10515,New York City Region,NY,10030,40.819,-73.9431
10516,New York City Region,NY,10031,40.8249,-73.9501
10517,New York City Region,NY,10032,40.8385,-73.9422
10518,New York City Region,NY,10033,40.8505,-73.9354
10519,New York City Region,NY,10034,40.8668,-73.9209
10520,New York City Region,NY,10035,40.8013,-73.9378
10521,New York City Region,NY,10036,40.7588,-73.9932
10522,New York City Region,NY,10037,40.8146,-73.9365
10523,New York City Region,NY,10038,40.7102,-74.0032
10524,New York City Region,NY,10039,40.826,-73.9372
10525,New York City Region,NY,10040,40.8589,-73.9311
10526,New York City Region,NY,10044,40.761,-73.9511
10527,New York City Region,NY,10128,40.7802,-73.9504
10528,New York City Region,NY,10280,40.7076,-74.0166
10529,New York City Region,NY,10301,40.6406,-74.0817
10530,New York City Region,NY,10302,40.6314,-74.1382
10531,New York City Region,NY,10303,40.6301,-74.1582
10532,New York City Region,NY,10304,40.6195,-74.0797
10533,New York City Region,NY,10305,40.6113,-74.0696
10534,New York City Region,NY,10306,40.5668,-74.1173
10535,New York City Region,NY,10307,40.5086,-74.244
10536,New York City Region,NY,10308,40.5472,-74.15
10537,New York City Region,NY,10309,40.5436,-74.2138
10538,New York City Region,NY,10310,40.6342,-74.1193
10539,New York City Region,NY,10312,40.5403,-74.1686
10540,New York City Region,NY,10314,40.5844,-74.1599
10541,New York City Region,NY,10451,40.8223,-73.9204
10542,New York City Region,NY,10452,40.8368,-73.9216
10543,New York City Region,NY,10453,40.8526,-73.9093
10544,New York City Region,NY,10454,40.8077,-73.92
10545,New York City Region,NY,10455,40.8156,-73.9051
10546,New York City Region,NY,10456,40.8308,-73.9118
10547,New York City Region,NY,10457,40.8491,-73.8989
10548,New York City Region,NY,10458,40.8611,-73.8899
10549,New York City Region,NY,10459,40.8261,-73.8932
10550,New York City Region,NY,10460,40.8403,-73.8846
10551,New York City Region,NY,10461,40.8474,-73.8309
10552,New York City Region,NY,10462,40.8379,-73.8561
10553,New York City Region,NY,10463,40.8753,-73.9121
10554,New York City Region,NY,10464,40.8689,-73.803
10555,New York City Region,NY,10465,40.826,-73.8216
10556,New York City Region,NY,10466,40.8906,-73.8568
10557,New York City Region,NY,10467,40.8781,-73.8792
10558,New York City Region,NY,10468,40.8655,-73.9014
10559,New York City Region,NY,10469,40.8746,-73.8529
10560,New York City Region,NY,10470,40.8986,-73.8688
10561,New York City Region,NY,10471,40.9038,-73.9008
10562,New York City Region,NY,10472,40.8299,-73.8754
10563,New York City Region,NY,10473,40.82,-73.8643
10564,New York City Region,NY,10474,40.8134,-73.8879
10565,New York City Region,NY,10475,40.877,-73.8299
10566,New York City Region,NY,10501,41.2925,-73.7666
10567,New York City Region,NY,10502,41.0096,-73.8424
10568,New York City Region,NY,10504,41.1233,-73.7137
10569,New York City Region,NY,10505,41.3406,-73.7598
10570,New York City Region,NY,10506,41.1993,-73.6483
10571,New York City Region,NY,10507,41.2401,-73.6925
10572,New York City Region,NY,11001,40.7335,-73.7061
10573,New York City Region,NY,10989,41.1194,-73.9459
10574,New York City Region,NY,11004,40.743,-73.7096
10575,New York City Region,NY,11005,40.759,-73.7172
10576,New York City Region,NY,10993,41.2084,-73.9821
10577,New York City Region,NY,10994,41.0936,-73.9716
10578,New York City Region,NY,10986,41.2566,-73.9879
10579,New York City Region,NY,10974,41.1665,-74.1854
10580,New York City Region,NY,10976,41.034,-73.9312
10581,New York City Region,NY,10977,41.1189,-74.0438
10582,New York City Region,NY,10980,41.2237,-73.9914
10583,New York City Region,NY,10983,41.0308,-73.9576
10584,New York City Region,NY,10984,41.2043,-74.0179
10585,New York City Region,NY,10970,41.1918,-74.0334
10586,New York City Region,NY,10960,41.0938,-73.9223
10587,New York City Region,NY,10962,41.0444,-73.9501
10588,New York City Region,NY,11691,40.6005,-73.7536
10589,New York City Region,NY,11692,40.5933,-73.7917
10590,New York City Region,NY,11693,40.5876,-73.8124
10591,New York City Region,NY,11694,40.5802,-73.8322
10592,New York City Region,NY,11697,40.558,-73.9179
10593,New York City Region,NY,11101,40.7504,-73.9448
10594,New York City Region,NY,11102,40.7707,-73.925
10595,New York City Region,NY,11103,40.7624,-73.9143
10596,New York City Region,NY,11104,40.7429,-73.9219
10597,New York City Region,NY,11105,40.7785,-73.9138
10598,New York City Region,NY,11106,40.762,-73.9279
10599,New York City Region,NY,11201,40.692,-73.9918
10600,New York City Region,NY,11203,40.6554,-73.9335
10601,New York City Region,NY,11204,40.6149,-73.9858
10602,New York City Region,NY,11205,40.6924,-73.9618
10603,New York City Region,NY,11206,40.7032,-73.9469
10604,New York City Region,NY,11207,40.6658,-73.8925
10605,New York City Region,NY,11208,40.6734,-73.8702
10606,New York City Region,NY,11209,40.6192,-74.0334
10607,New York City Region,NY,11210,40.6333,-73.9466
10608,New York City Region,NY,11211,40.7103,-73.9569
10609,New York City Region,NY,11212,40.6608,-73.9201
10610,New York City Region,NY,11213,40.6698,-73.9357
10611,New York City Region,NY,11214,40.6032,-73.9962
10612,New York City Region,NY,11215,40.6689,-73.9819
10613,New York City Region,NY,11216,40.6792,-73.9493
10614,New York City Region,NY,11217,40.6827,-73.9784
10615,New York City Region,NY,11218,40.6402,-73.974
10616,New York City Region,NY,11219,40.6367,-73.993
10617,New York City Region,NY,11220,40.6417,-74.0169
10618,New York City Region,NY,11221,40.6924,-73.9262
10619,New York City Region,NY,11222,40.7299,-73.9525
10620,New York City Region,NY,11223,40.6009,-73.9786
10621,New York City Region,NY,11224,40.5756,-73.9952
10622,New York City Region,NY,11225,40.6629,-73.956
10623,New York City Region,NY,11226,40.6476,-73.9585
10624,New York City Region,NY,11228,40.618,-74.0072
10625,New York City Region,NY,11229,40.6024,-73.955
10626,New York City Region,NY,11230,40.6274,-73.966
10627,New York City Region,NY,11231,40.6796,-73.9999
10628,New York City Region,NY,11232,40.6499,-74.0019
10629,New York City Region,NY,11233,40.6789,-73.9201
10630,New York City Region,NY,11234,40.6306,-73.9235
10631,New York City Region,NY,11235,40.5818,-73.9597
10632,New York City Region,NY,11236,40.6457,-73.8972
10633,New York City Region,NY,11237,40.7024,-73.9198
10634,New York City Region,NY,11238,40.6777,-73.9631
10635,New York City Region,NY,11239,40.6484,-73.8804
10636,New York City Region,NY,11251,40.7034,-73.9698
10637,New York City Region,NY,11354,40.7663,-73.826
10638,New York City Region,NY,11355,40.756,-73.8256
10639,New York City Region,NY,11356,40.7855,-73.8456
10640,New York City Region,NY,11357,40.7922,-73.8125
10641,New York City Region,NY,11358,40.7586,-73.8012
10642,New York City Region,NY,11359,40.7915,-73.7748
10643,New York City Region,NY,11360,40.7814,-73.7784
10644,New York City Region,NY,11361,40.7625,-73.7696
10645,New York City Region,NY,11362,40.7584,-73.7362
10646,New York City Region,NY,11363,40.7714,-73.7453
10647,New York City Region,NY,11364,40.7438,-73.7606
10648,New York City Region,NY,11365,40.7405,-73.7842
10649,New York City Region,NY,11366,40.7251,-73.8028
10650,New York City Region,NY,11367,40.7248,-73.8173
10651,New York City Region,NY,11368,40.7501,-73.8631
10652,New York City Region,NY,11369,40.7612,-73.8737
10653,New York City Region,NY,11370,40.7656,-73.8925
10654,New York City Region,NY,11371,40.7762,-73.874
10655,New York City Region,NY,11372,40.7511,-73.8853
10656,New York City Region,NY,11373,40.7424,-73.8789
10657,New York City Region,NY,11374,40.7291,-73.8606
10658,New York City Region,NY,11375,40.7258,-73.8457
10659,New York City Region,NY,11377,40.7453,-73.9047
10660,New York City Region,NY,11378,40.7265,-73.8987
10661,New York City Region,NY,11379,40.7231,-73.8745
10662,New York City Region,NY,11385,40.7037,-73.9065
10663,New York City Region,NY,11411,40.6942,-73.7377
10664,New York City Region,NY,11412,40.6939,-73.7586
10665,New York City Region,NY,11413,40.6738,-73.7496
10666,New York City Region,NY,11414,40.6632,-73.8493
10667,New York City Region,NY,11415,40.7076,-73.8295
10668,New York City Region,NY,11416,40.6835,-73.8493
10669,New York City Region,NY,11417,40.6768,-73.8435
10670,New York City Region,NY,11418,40.7007,-73.8372
10671,New York City Region,NY,11419,40.6881,-73.8241
10672,New York City Region,NY,11420,40.6763,-73.8171
10673,New York City Region,NY,11421,40.6931,-73.8544
10674,New York City Region,NY,11422,40.6668,-73.7339
10675,New York City Region,NY,11423,40.7164,-73.7659
10676,New York City Region,NY,11426,40.7292,-73.7242
10677,New York City Region,NY,11427,40.7249,-73.7558
10678,New York City Region,NY,11428,40.7228,-73.7376
10679,New York City Region,NY,11429,40.7099,-73.7358
10680,New York City Region,NY,11430,40.6556,-73.8066
10681,New York City Region,NY,11432,40.711,-73.7931
10682,New York City Region,NY,11433,40.6989,-73.7889
10683,New York City Region,NY,11434,40.6793,-73.774
10684,New York City Region,NY,11435,40.7125,-73.816
10685,New York City Region,NY,11436,40.6732,-73.7955
14969,Upper Hudson Valley Region,NY,12007,42.4634,-73.9346
14970,Upper Hudson Valley Region,NY,12008,42.8557,-73.8994
14971,Upper Hudson Valley Region,NY,12009,42.7475,-74.0475
14972,Upper Hudson Valley Region,NY,12010,42.9956,-74.0706
14973,Upper Hudson Valley Region,NY,12015,42.264,-73.8098
14974,Upper Hudson Valley Region,NY,12017,42.3361,-73.4229
14975,Upper Hudson Valley Region,NY,12018,42.6356,-73.5594
14976,Upper Hudson Valley Region,NY,12019,42.9307,-73.8165
14977,Upper Hudson Valley Region,NY,12020,43.0054,-73.8482
14978,Upper Hudson Valley Region,NY,12022,42.6946,-73.371
14979,Upper Hudson Valley Region,NY,12023,42.631,-74.1342
14980,Upper Hudson Valley Region,NY,12024,42.4838,-73.52
14981,Upper Hudson Valley Region,NY,12025,43.0383,-74.0847
14982,Upper Hudson Valley Region,NY,12027,42.9029,-73.9103
14983,Upper Hudson Valley Region,NY,12028,42.9483,-73.4374
14984,Upper Hudson Valley Region,NY,12029,42.3963,-73.4147
14985,Upper Hudson Valley Region,NY,12031,42.7575,-74.4442
14986,Upper Hudson Valley Region,NY,13452,43.0703,-74.6876
14987,Upper Hudson Valley Region,NY,13428,42.9193,-74.5689
14988,Upper Hudson Valley Region,NY,13459,42.8298,-74.5759
14989,Upper Hudson Valley Region,NY,13470,43.1846,-74.7147
14990,Upper Hudson Valley Region,NY,13317,42.8208,-74.669
14991,Upper Hudson Valley Region,NY,13339,42.9853,-74.5297
14992,Upper Hudson Valley Region,NY,13329,43.1026,-74.7737
14993,Upper Hudson Valley Region,NY,12165,42.3193,-73.5079
14994,Upper Hudson Valley Region,NY,12166,42.8105,-74.4702
14995,Upper Hudson Valley Region,NY,12156,42.4949,-73.7403
14996,Upper Hudson Valley Region,NY,12157,42.6669,-74.1645
14997,Upper Hudson Valley Region,NY,12158,42.5318,-73.8062
14998,Upper Hudson Valley Region,NY,12159,42.6535,-73.8449
14999,Upper Hudson Valley Region,NY,12160,42.7562,-74.368
15000,Upper Hudson Valley Region,NY,12407,42.3028,-74.3423
15001,Upper Hudson Valley Region,NY,12405,42.3109,-74.0548
15002,Upper Hudson Valley Region,NY,12192,42.3834,-73.8331
15003,Upper Hudson Valley Region,NY,12193,42.515,-74.0417
15004,Upper Hudson Valley Region,NY,12194,42.5435,-74.4449
15005,Upper Hudson Valley Region,NY,12196,42.6469,-73.6117
15006,Upper Hudson Valley Region,NY,12198,42.6935,-73.6397
15007,Upper Hudson Valley Region,NY,12202,42.6408,-73.7594
15008,Upper Hudson Valley Region,NY,12203,42.6795,-73.8436
15009,Upper Hudson Valley Region,NY,12204,42.682,-73.7353
15010,Upper Hudson Valley Region,NY,12205,42.7155,-73.8057
15011,Upper Hudson Valley Region,NY,12206,42.6645,-73.7718
15012,Upper Hudson Valley Region,NY,12207,42.6524,-73.7506
15013,Upper Hudson Valley Region,NY,12208,42.6524,-73.7769
15014,Upper Hudson Valley Region,NY,12209,42.6415,-73.7801
15015,Upper Hudson Valley Region,NY,12210,42.6544,-73.7602
15016,Upper Hudson Valley Region,NY,12211,42.7126,-73.7765
15017,Upper Hudson Valley Region,NY,12233,42.6516,-73.7552
15018,Upper Hudson Valley Region,NY,12302,42.915,-73.9581
15019,Upper Hudson Valley Region,NY,12303,42.7279,-73.9325
15020,Upper Hudson Valley Region,NY,12304,42.7765,-73.9109
15021,Upper Hudson Valley Region,NY,12305,42.8137,-73.9426
15022,Upper Hudson Valley Region,NY,12306,42.7513,-73.9539
15023,Upper Hudson Valley Region,NY,12307,42.8048,-73.9341
15024,Upper Hudson Valley Region,NY,12308,42.821,-73.9119
15025,Upper Hudson Valley Region,NY,12309,42.8063,-73.8988
15026,Upper Hudson Valley Region,NY,12413,42.3062,-74.0146
15027,Upper Hudson Valley Region,NY,12414,42.2197,-73.8665
15028,Upper Hudson Valley Region,NY,12422,42.3899,-74.2391
15029,Upper Hudson Valley Region,NY,12423,42.3705,-74.0984
15030,Upper Hudson Valley Region,NY,12424,42.2458,-74.1534
15031,Upper Hudson Valley Region,NY,12427,42.1525,-74.1212
15032,Upper Hudson Valley Region,NY,12418,42.3747,-74.1231
15033,Upper Hudson Valley Region,NY,12439,42.2922,-74.2104
15034,Upper Hudson Valley Region,NY,12431,42.3622,-74.0448
15035,Upper Hudson Valley Region,NY,12450,42.1253,-74.2669
15036,Upper Hudson Valley Region,NY,12451,42.3376,-73.9699
15037,Upper Hudson Valley Region,NY,12454,42.2787,-74.1933
15038,Upper Hudson Valley Region,NY,12444,42.2557,-74.306
15039,Upper Hudson Valley Region,NY,12442,42.2514,-74.2447
15040,Upper Hudson Valley Region,NY,12468,42.3175,-74.463
15041,Upper Hudson Valley Region,NY,12469,42.4564,-74.3171
15042,Upper Hudson Valley Region,NY,12470,42.2875,-74.0134
15043,Upper Hudson Valley Region,NY,12460,42.4118,-74.1546
15044,Upper Hudson Valley Region,NY,12090,42.9017,-73.3528
15045,Upper Hudson Valley Region,NY,12092,42.7061,-74.3321
15046,Upper Hudson Valley Region,NY,12093,42.4885,-74.6889
15047,Upper Hudson Valley Region,NY,12094,42.9175,-73.5138
15048,Upper Hudson Valley Region,NY,12095,42.9759,-74.3617
15049,Upper Hudson Valley Region,NY,12106,42.3947,-73.6946
15050,Upper Hudson Valley Region,NY,12083,42.4206,-74.021
15051,Upper Hudson Valley Region,NY,12084,42.6937,-73.8944
15052,Upper Hudson Valley Region,NY,12086,42.9943,-74.1223
15053,Upper Hudson Valley Region,NY,12087,42.4389,-73.9344
15054,Upper Hudson Valley Region,NY,12117,43.1037,-74.2689
15055,Upper Hudson Valley Region,NY,12118,42.9046,-73.6805
15056,Upper Hudson Valley Region,NY,12120,42.4139,-74.1283
15057,Upper Hudson Valley Region,NY,12121,42.8477,-73.6223
15058,Upper Hudson Valley Region,NY,12122,42.5213,-74.3111
15059,Upper Hudson Valley Region,NY,12123,42.5341,-73.607
15060,Upper Hudson Valley Region,NY,12125,42.4792,-73.3735
15061,Upper Hudson Valley Region,NY,12130,42.4451,-73.6577
15062,Upper Hudson Valley Region,NY,12131,42.4339,-74.4771
15063,Upper Hudson Valley Region,NY,12033,42.5288,-73.7502
15064,Upper Hudson Valley Region,NY,12035,42.7178,-74.3417
15065,Upper Hudson Valley Region,NY,12036,42.5449,-74.6663
15066,Upper Hudson Valley Region,NY,12037,42.3595,-73.5987
15067,Upper Hudson Valley Region,NY,12065,42.8632,-73.7731
15068,Upper Hudson Valley Region,NY,12066,42.769,-74.2465
15069,Upper Hudson Valley Region,NY,12067,42.5817,-73.8827
15070,Upper Hudson Valley Region,NY,12068,42.9567,-74.3755
15071,Upper Hudson Valley Region,NY,12070,42.9591,-74.2308
15072,Upper Hudson Valley Region,NY,12071,42.5563,-74.4088
15073,Upper Hudson Valley Region,NY,12072,42.9466,-74.3706
15074,Upper Hudson Valley Region,NY,12074,43.0381,-74.0702
15075,Upper Hudson Valley Region,NY,12075,42.3286,-73.6166
15076,Upper Hudson Valley Region,NY,12076,42.4306,-74.3645
15077,Upper Hudson Valley Region,NY,12077,42.6031,-73.7906
15078,Upper Hudson Valley Region,NY,12078,43.051,-74.3425
15079,Upper Hudson Valley Region,NY,12110,42.7475,-73.7549
15080,Upper Hudson Valley Region,NY,12136,42.4407,-73.5603
15081,Upper Hudson Valley Region,NY,12137,42.8332,-74.1532
15082,Upper Hudson Valley Region,NY,12138,42.7475,-73.3425
15083,Upper Hudson Valley Region,NY,12140,42.6912,-73.5701
15084,Upper Hudson Valley Region,NY,12143,42.4712,-73.8144
15085,Upper Hudson Valley Region,NY,12144,42.6399,-73.739
15086,Upper Hudson Valley Region,NY,12147,42.5169,-74.14
15087,Upper Hudson Valley Region,NY,12148,42.8528,-73.8417
15088,Upper Hudson Valley Region,NY,12149,42.6342,-74.5625
15089,Upper Hudson Valley Region,NY,12150,42.8755,-74.0457
15090,Upper Hudson Valley Region,NY,12151,42.9381,-73.796
15091,Upper Hudson Valley Region,NY,12153,42.644,-73.5229
15092,Upper Hudson Valley Region,NY,12154,42.9266,-73.5827
15093,Upper Hudson Valley Region,NY,12168,42.5529,-73.371
15094,Upper Hudson Valley Region,NY,12169,42.5705,-73.4081
15095,Upper Hudson Valley Region,NY,12170,42.9363,-73.6611
15096,Upper Hudson Valley Region,NY,12173,42.3868,-73.7826
15097,Upper Hudson Valley Region,NY,12175,42.575,-74.5896
15098,Upper Hudson Valley Region,NY,12176,42.3878,-73.9637
15099,Upper Hudson Valley Region,NY,12180,42.7301,-73.6895
15100,Upper Hudson Valley Region,NY,12182,42.7753,-73.6735
15101,Upper Hudson Valley Region,NY,12183,42.7417,-73.6933
15102,Upper Hudson Valley Region,NY,12184,42.4151,-73.6782
15103,Upper Hudson Valley Region,NY,12185,42.9617,-73.5365
15104,Upper Hudson Valley Region,NY,12186,42.6489,-73.9231
15105,Upper Hudson Valley Region,NY,12187,42.6431,-74.4964
15106,Upper Hudson Valley Region,NY,12188,42.7925,-73.6811
15107,Upper Hudson Valley Region,NY,12189,42.73,-73.7059
15108,Upper Hudson Valley Region,NY,12041,42.5803,-73.9583
15109,Upper Hudson Valley Region,NY,12042,42.3621,-73.8576
15110,Upper Hudson Valley Region,NY,12043,42.6805,-74.4838
15111,Upper Hudson Valley Region,NY,12046,42.4695,-73.8913
15112,Upper Hudson Valley Region,NY,12047,42.774,-73.7041
15113,Upper Hudson Valley Region,NY,12051,42.3538,-73.8025
15114,Upper Hudson Valley Region,NY,12052,42.7341,-73.4586
15115,Upper Hudson Valley Region,NY,12053,42.8236,-74.2476
15116,Upper Hudson Valley Region,NY,12054,42.6192,-73.8335
15117,Upper Hudson Valley Region,NY,12055,42.4981,-73.994
15118,Upper Hudson Valley Region,NY,12056,42.7656,-74.1283
15119,Upper Hudson Valley Region,NY,12057,42.9889,-73.2845
15120,Upper Hudson Valley Region,NY,12058,42.3553,-73.9041
15121,Upper Hudson Valley Region,NY,12059,42.6209,-74.074
15122,Upper Hudson Valley Region,NY,12060,42.362,-73.4819
15123,Upper Hudson Valley Region,NY,12061,42.5884,-73.6984
15124,Upper Hudson Valley Region,NY,12062,42.5128,-73.5238
15125,Upper Hudson Valley Region,NY,12534,42.2508,-73.7879
15126,Upper Hudson Valley Region,NY,12803,43.298,-73.6339
15127,Upper Hudson Valley Region,NY,12816,43.0252,-73.3804
15128,Upper Hudson Valley Region,NY,12837,43.4924,-73.2544
15129,Upper Hudson Valley Region,NY,12838,43.3402,-73.404
15130,Upper Hudson Valley Region,NY,12839,43.2999,-73.5824
15131,Upper Hudson Valley Region,NY,12821,43.4599,-73.3839
15132,Upper Hudson Valley Region,NY,12822,43.2438,-73.8284
15133,Upper Hudson Valley Region,NY,12823,43.1778,-73.3969
15134,Upper Hudson Valley Region,NY,12827,43.4164,-73.581
15135,Upper Hudson Valley Region,NY,12828,43.2571,-73.6479
15136,Upper Hudson Valley Region,NY,12831,43.1308,-73.7659
15137,Upper Hudson Valley Region,NY,12832,43.4039,-73.2638
15138,Upper Hudson Valley Region,NY,12833,43.1097,-73.8431
15139,Upper Hudson Valley Region,NY,12834,43.0919,-73.5026
15140,Upper Hudson Valley Region,NY,12835,43.2858,-74.0065
15141,Upper Hudson Valley Region,NY,12529,42.1796,-73.5213
15142,Upper Hudson Valley Region,NY,12526,42.1333,-73.8864
15143,Upper Hudson Valley Region,NY,12523,42.0595,-73.7966
15144,Upper Hudson Valley Region,NY,12521,42.1497,-73.5903
15145,Upper Hudson Valley Region,NY,12516,42.1182,-73.558
15146,Upper Hudson Valley Region,NY,12517,42.1188,-73.5242
15147,Upper Hudson Valley Region,NY,12513,42.2224,-73.7307
15148,Upper Hudson Valley Region,NY,12496,42.3095,-74.246
15149,Upper Hudson Valley Region,NY,12502,42.0501,-73.6376
15150,Upper Hudson Valley Region,NY,12503,42.0741,-73.597
15151,Upper Hudson Valley Region,NY,12492,42.2122,-74.3866
15152,Upper Hudson Valley Region,NY,12485,42.1955,-74.1379
15153,Upper Hudson Valley Region,NY,12473,42.2688,-74.0261
15154,Upper Hudson Valley Region,NY,12463,42.1703,-74.0165
15155,Upper Hudson Valley Region,NY,12482,42.2735,-73.9548
15156,Upper Hudson Valley Region,NY,12887,43.5514,-73.4048
15157,Upper Hudson Valley Region,NY,12873,43.0901,-73.3424
15158,Upper Hudson Valley Region,NY,12871,43.1,-73.5825
15159,Upper Hudson Valley Region,NY,12861,43.7324,-73.4585
15160,Upper Hudson Valley Region,NY,12863,43.0643,-73.9192
15161,Upper Hudson Valley Region,NY,12865,43.1732,-73.3298
15162,Upper Hudson Valley Region,NY,12866,43.0822,-73.7872
15163,Upper Hudson Valley Region,NY,12859,43.1453,-73.8888
15164,Upper Hudson Valley Region,NY,12854,43.4467,-73.3209
15165,Upper Hudson Valley Region,NY,12849,43.4444,-73.3054
15166,Upper Hudson Valley Region,NY,12850,43.0729,-73.984
15167,Upper Hudson Valley Region,NY,12844,43.5155,-73.6291
15168,Upper Hudson Valley Region,NY,12809,43.2353,-73.4909
15712,Western New York Region,NY,14001,43.0234,-78.4983
15713,Western New York Region,NY,14004,42.8603,-78.4655
15714,Western New York Region,NY,14005,42.9048,-78.2598
15715,Western New York Region,NY,14006,42.6409,-79.0326
15716,Western New York Region,NY,14009,42.5342,-78.4225
15717,Western New York Region,NY,14011,42.8756,-78.2689
15718,Western New York Region,NY,14013,43.0637,-78.4446
15719,Western New York Region,NY,14020,42.9954,-78.1799
15720,Western New York Region,NY,14024,42.6359,-78.284
15721,Western New York Region,NY,14025,42.6439,-78.74
15722,Western New York Region,NY,14026,42.9418,-78.6838
15723,Western New York Region,NY,14030,42.5171,-78.5113
15724,Western New York Region,NY,14031,42.9752,-78.6213
15725,Western New York Region,NY,14032,43.0074,-78.6354
15726,Western New York Region,NY,14033,42.6431,-78.6872
15727,Western New York Region,NY,14034,42.4982,-78.9285
15728,Western New York Region,NY,14036,42.959,-78.4093
15729,Western New York Region,NY,14037,42.7799,-78.5011
15730,Western New York Region,NY,14039,42.8216,-78.175
15731,Western New York Region,NY,14040,42.8583,-78.3625
15732,Western New York Region,NY,14041,42.4186,-78.9766
15733,Western New York Region,NY,14042,42.5165,-78.482
15734,Western New York Region,NY,14043,42.9045,-78.6893
15735,Western New York Region,NY,14047,42.7006,-78.9821
15736,Western New York Region,NY,14048,42.4832,-79.3331
15737,Western New York Region,NY,14051,43.0452,-78.7211
15738,Western New York Region,NY,14052,42.7676,-78.6138
15739,Western New York Region,NY,14054,42.8615,-78.1467
15740,Western New York Region,NY,14055,42.5496,-78.6395
15741,Western New York Region,NY,14057,42.6519,-78.8953
15742,Western New York Region,NY,14058,43.1356,-78.1474
15743,Western New York Region,NY,14059,42.8394,-78.6404
15744,Western New York Region,NY,14060,42.4369,-78.3027
15745,Western New York Region,NY,14062,42.4719,-79.1757
15746,Western New York Region,NY,14063,42.444,-79.3309
15747,Western New York Region,NY,14065,42.4915,-78.2495
15748,Western New York Region,NY,14066,42.6405,-78.1343
15749,Western New York Region,NY,14068,43.0219,-78.762
15750,Western New York Region,NY,14069,42.6012,-78.6447
15751,Western New York Region,NY,14070,42.4701,-78.9357
15752,Western New York Region,NY,14072,43.0216,-78.9659
15753,Western New York Region,NY,14075,42.7211,-78.8323
15754,Western New York Region,NY,14080,42.6457,-78.5474
15755,Western New York Region,NY,14081,42.591,-79.0928
15756,Western New York Region,NY,14082,42.6499,-78.3694
15757,Western New York Region,NY,14083,42.6784,-78.4377
15758,Western New York Region,NY,14085,42.7268,-78.9354
15759,Western New York Region,NY,14086,42.8978,-78.6737
15760,Western New York Region,NY,14091,42.5365,-78.9312
15761,Western New York Region,NY,14092,43.1741,-79.0412
15762,Western New York Region,NY,14101,42.4161,-78.4934
15763,Western New York Region,NY,14102,42.8318,-78.5548
15764,Western New York Region,NY,14109,43.1365,-79.0394
15765,Western New York Region,NY,14111,42.5942,-78.9366
15766,Western New York Region,NY,14113,42.6864,-78.3407
15767,Western New York Region,NY,14120,43.0291,-78.8734
15768,Western New York Region,NY,14125,43.0665,-78.2711
15769,Western New York Region,NY,14127,42.7769,-78.7924
15770,Western New York Region,NY,14129,42.4772,-78.9701
15771,Western New York Region,NY,14131,43.238,-78.9081
15772,Western New York Region,NY,14132,43.14,-78.8812
15773,Western New York Region,NY,14134,42.5364,-78.5136
15774,Western New York Region,NY,14136,42.5433,-79.1667
15775,Western New York Region,NY,14138,42.3635,-79.0525
15776,Western New York Region,NY,14139,42.7094,-78.5763
15777,Western New York Region,NY,14141,42.5103,-78.6688
15778,Western New York Region,NY,14143,42.982,-78.0723
15779,Western New York Region,NY,14145,42.7012,-78.4457
15780,Western New York Region,NY,14150,43.014,-78.8791
15781,Western New York Region,NY,14167,42.7578,-78.3089
15782,Western New York Region,NY,14170,42.6988,-78.6825
15783,Western New York Region,NY,14171,42.4074,-78.6125
15784,Western New York Region,NY,14174,43.2507,-79.0457
15785,Western New York Region,NY,14201,42.897,-78.8826
15786,Western New York Region,NY,14202,42.8854,-78.8783
15787,Western New York Region,NY,14203,42.8853,-78.8732
15788,Western New York Region,NY,14204,42.8782,-78.8614
15789,Western New York Region,NY,14206,42.8716,-78.8042
15790,Western New York Region,NY,14207,42.9448,-78.8862
15791,Western New York Region,NY,14208,42.9133,-78.8509
15792,Western New York Region,NY,14209,42.9086,-78.867
15793,Western New York Region,NY,14210,42.8742,-78.8489
15794,Western New York Region,NY,14211,42.9083,-78.8282
15795,Western New York Region,NY,14212,42.8942,-78.8329
15796,Western New York Region,NY,14213,42.9197,-78.8901
15797,Western New York Region,NY,14214,42.9391,-78.8401
15798,Western New York Region,NY,14215,42.9413,-78.8006
15799,Western New York Region,NY,14216,42.9513,-78.8624
15800,Western New York Region,NY,14217,42.9668,-78.8745
15801,Western New York Region,NY,14218,42.8201,-78.8264
15802,Western New York Region,NY,14219,42.7948,-78.8261
15803,Western New York Region,NY,14220,42.8484,-78.8199
15804,Western New York Region,NY,14221,42.9666,-78.7419
15805,Western New York Region,NY,14222,42.9119,-78.8773
15806,Western New York Region,NY,14223,42.9785,-78.8545
15807,Western New York Region,NY,14224,42.8359,-78.7691
15808,Western New York Region,NY,14225,42.9298,-78.776
15809,Western New York Region,NY,14226,42.9876,-78.8171
15810,Western New York Region,NY,14227,42.8855,-78.7544
15811,Western New York Region,NY,14228,43.0064,-78.8077
15812,Western New York Region,NY,14260,42.9996,-78.7901
15813,Western New York Region,NY,14301,43.0948,-79.0535
15814,Western New York Region,NY,14303,43.0876,-79.0388
15815,Western New York Region,NY,14304,43.0816,-78.967
15816,Western New York Region,NY,14305,43.1085,-79.0492
15817,Western New York Region,NY,14884,42.4783,-77.8553
15818,Western New York Region,NY,14569,42.7417,-78.1343
15819,Western New York Region,NY,14591,42.8266,-78.0893
15820,Western New York Region,NY,14813,42.2244,-78.0334
15821,Western New York Region,NY,14802,42.2573,-77.791
15822,Western New York Region,NY,14803,42.2688,-77.7586
15823,Western New York Region,NY,14804,42.3134,-77.7444
15824,Western New York Region,NY,14895,42.1226,-77.9495
15825,Western New York Region,NY,14897,42.0128,-77.7387
15826,Western New York Region,NY,14822,42.4855,-77.8098
15827,Western New York Region,NY,14482,42.9769,-77.9874
15828,Western New York Region,NY,14525,42.8411,-77.964
15829,Western New York Region,NY,14530,42.7188,-78.006
15830,Western New York Region,NY,14536,42.5662,-78.0453
15831,Western New York Region,NY,14550,42.6617,-78.083
15832,Western New York Region,NY,14880,42.175,-77.9769
15833,Western New York Region,NY,14701,42.0994,-79.2386
15834,Western New York Region,NY,14706,42.0924,-78.4903
15835,Western New York Region,NY,14708,42.0139,-78.0573
15836,Western New York Region,NY,14709,42.3074,-78.0213
15837,Western New York Region,NY,14710,42.104,-79.3627
15838,Western New York Region,NY,14711,42.3416,-78.1166
15839,Western New York Region,NY,14712,42.1568,-79.3882
15840,Western New York Region,NY,14714,42.2755,-78.2265
15841,Western New York Region,NY,14715,42.0658,-78.1659
15842,Western New York Region,NY,14716,42.3918,-79.4427
15843,Western New York Region,NY,14717,42.3763,-78.2043
15844,Western New York Region,NY,14718,42.347,-79.3127
15845,Western New York Region,NY,14719,42.3259,-78.8666
15846,Western New York Region,NY,14721,42.0,-78.2776
15847,Western New York Region,NY,14723,42.2983,-79.0986
15848,Western New York Region,NY,14724,42.0194,-79.6274
15849,Western New York Region,NY,14726,42.2906,-79.0173
15850,Western New York Region,NY,14727,42.2176,-78.2752
15851,Western New York Region,NY,14728,42.2382,-79.4563
15852,Western New York Region,NY,14729,42.3897,-78.7553
15853,Western New York Region,NY,14731,42.2694,-78.6686
15854,Western New York Region,NY,14733,42.1196,-79.2006
15855,Western New York Region,NY,14735,42.4703,-78.1344
15856,Western New York Region,NY,14736,42.1212,-79.7346
15857,Western New York Region,NY,14737,42.3397,-78.4576
15858,Western New York Region,NY,14738,42.0611,-78.9382
15859,Western New York Region,NY,14739,42.2079,-78.1366
15860,Western New York Region,NY,14740,42.1931,-79.2486
15861,Western New York Region,NY,14741,42.2099,-78.6406
15862,Western New York Region,NY,14743,42.1626,-78.3941
15863,Western New York Region,NY,14744,42.4262,-78.1601
15864,Western New York Region,NY,14747,42.1548,-79.1011
15865,Western New York Region,NY,14748,42.1557,-78.6756
15866,Western New York Region,NY,14750,42.1004,-79.3272
15867,Western New York Region,NY,14753,42.0292,-78.6314
15868,Western New York Region,NY,14754,42.0209,-78.2172
15869,Western New York Region,NY,14755,42.2494,-78.8018
15870,Western New York Region,NY,14757,42.2518,-79.5006
15871,Western New York Region,NY,14760,42.08,-78.4362
15872,Western New York Region,NY,14767,42.0787,-79.4853
15873,Western New York Region,NY,14769,42.3791,-79.4688
15874,Western New York Region,NY,14770,42.0472,-78.2933
15875,Western New York Region,NY,14772,42.1622,-78.9834
15876,Western New York Region,NY,14775,42.2597,-79.7125
15877,Western New York Region,NY,14777,42.3872,-78.2008
15878,Western New York Region,NY,14779,42.1558,-78.7161
15879,Western New York Region,NY,14781,42.157,-79.5972
15880,Western New York Region,NY,14782,42.2645,-79.2549
15881,Western New York Region,NY,14784,42.3222,-79.3592
15882,Western New York Region,NY,14787,42.3216,-79.5741
15883,Western New York Region,NY,14416,43.1329,-78.0068
15884,Western New York Region,NY,14422,43.0814,-78.0645
15885,Western New York Region,NY,14427,42.6327,-78.0504
